{"type": "FeatureCollection", "features": [{"type": "Feature", "geometry": {"type": "Polygon", "coordinates": [[[-119.72989460252856, 49.906788611358806], [-119.71012272055285, 49.9], [-119.69313348791646, 49.9], [-119.69179891682239, 49.9], [-119.66115899528081, 49.9], [-119.66048016106215, 49.9], [-119.65838070050543, 49.9], [-119.58127204992836, 49.9], [-119.58104743057166, 49.9], [-119.5800665633894, 49.9], [-119.57987820991062, 49.9], [-119.57970368361813, 49.9], [-119.55712304270284, 49.9], [-119.5242688856186, 49.9], [-119.45528972481051, 49.94288450970156], [-119.45329599968859, 49.96088987249706], [-119.45697978812457, 50.00436232366102], [-119.4634669676971, 50.03753100863256], [-119.46915206141577, 50.050416681399476], [-119.4706325223471, 50.052932253963675], [-119.47098191220036, 50.053271246337225], [-119.48849978453114, 50.06991911834803], [-119.48947395224819, 50.07028660873318], [-119.51082187556644, 50.06445450771365], [-119.62482295615334, 50.01680670655651], [-119.72632122465657, 49.917729136768585], [-119.72732709304233, 49.915922034844144], [-119.72994863667482, 49.90787349301109], [-119.72989460252856, 49.906788611358806]]]}, "properties": {"label": "Evacuation Order Zone"}}]}