{
  "type": "FeatureCollection",
  "features": [
    {
      "type": "Feature",
      "id": 2193316,
      "geometry": {
        "type": "Polygon",
        "coordinates": [
          [
            [-119.525176238778, 50.0355661279874],
            [-119.525302965335, 50.035550691389],
            [-119.525340331994, 50.0355392089297],
            [-119.525355421643, 50.0355214516228],
            [-119.525425480447, 50.0355017620631],
            [-119.525436366218, 50.0354817116411],
            [-119.525455130653, 50.0354648042334],
            [-119.525468600967, 50.0354424716869],
            [-119.525437028078, 50.0354078657411],
            [-119.525412599814, 50.0353978482225],
            [-119.525298832617, 50.035406119545],
            [-119.525267756437, 50.0353642863645],
            [-119.525211652653, 50.0353380634218],
            [-119.525173430771, 50.0352989064281],
            [-119.525151127561, 50.0352646267669],
            [-119.5251328885, 50.0352182859399],
            [-119.525117272417, 50.0352007821684],
            [-119.525085949241, 50.0351933436524],
            [-119.525024341069, 50.0351703993173],
            [-119.52500783039, 50.0351554571212],
            [-119.524980470274, 50.0351487149037],
            [-119.524920079583, 50.0351632065569],
            [-119.524899122529, 50.0351468777198],
            [-119.524869514177, 50.0351453118927],
            [-119.524791205768, 50.0351250470354],
            [-119.524728847746, 50.0350936985033],
            [-119.524672370539, 50.0350820402543],
            [-119.524621543556, 50.0350770261856],
            [-119.524593407856, 50.0350886429699],
            [-119.524565224131, 50.0351146905163],
            [-119.524534915725, 50.035123423653],
            [-119.524473207172, 50.0351192264527],
            [-119.524431107973, 50.0351316468723],
            [-119.524359624369, 50.0351133132955],
            [-119.524348288746, 50.0350960604728],
            [-119.524360981064, 50.0350766937286],
            [-119.524378941555, 50.0350421375277],
            [-119.524389821488, 50.0350231837065],
            [-119.524395730288, 50.0349970696674],
            [-119.524420706491, 50.0349867522459],
            [-119.524485173888, 50.0349686053238],
            [-119.524507048625, 50.0349565419472],
            [-119.524520550845, 50.03493992234],
            [-119.524492942773, 50.0349107114502],
            [-119.524476133188, 50.0348880968412],
            [-119.524445209923, 50.0348708550096],
            [-119.524430280738, 50.0348444072449],
            [-119.524487479245, 50.0347942309574],
            [-119.52450366129, 50.0347722193921],
            [-119.52455302621, 50.0347485128539],
            [-119.524584706224, 50.0347413277681],
            [-119.524605387046, 50.0347259934952],
            [-119.524595800275, 50.0347072677563],
            [-119.524555052715, 50.0347110372918],
            [-119.524529943503, 50.0347271616718],
            [-119.524503658808, 50.0347342177105],
            [-119.524449430628, 50.034710787246],
            [-119.524456840593, 50.0346861395235],
            [-119.524440505604, 50.03466925759],
            [-119.524441436943, 50.0346451705195],
            [-119.524465573724, 50.0346243195402],
            [-119.524511565205, 50.0345854917056],
            [-119.524560904909, 50.0345648838205],
            [-119.524634188874, 50.0345508372193],
            [-119.524669300003, 50.0345373439821],
            [-119.524778612312, 50.0345296317736],
            [-119.524805333545, 50.0345146570203],
            [-119.52486345495, 50.0345203755056],
            [-119.524937202086, 50.0345179964893],
            [-119.524968727656, 50.0345171107904],
            [-119.524988307424, 50.0345038862019],
            [-119.525009891063, 50.0345155377616],
            [-119.525050607329, 50.0345256184398],
            [-119.525090722289, 50.0345202459459],
            [-119.525160612601, 50.0344926545786],
            [-119.525193668185, 50.0344796762165],
            [-119.525213426497, 50.0344658960976],
            [-119.525275351933, 50.0344405804107],
            [-119.525294887452, 50.0344186395518],
            [-119.525360974207, 50.0343931480398],
            [-119.525391118541, 50.0344057015305],
            [-119.525407149745, 50.0344270512693],
            [-119.525452070324, 50.0344639208969],
            [-119.525448929768, 50.034552673377],
            [-119.525492886308, 50.0345813619367],
            [-119.525528430974, 50.0345822057713],
            [-119.525530620701, 50.034608170787],
            [-119.525524364865, 50.0346268047147],
            [-119.525535112969, 50.0346510598491],
            [-119.525561431681, 50.0346875961632],
            [-119.525559858222, 50.034731050464],
            [-119.525599890018, 50.034762545877],
            [-119.525629424285, 50.034767632488],
            [-119.525647328156, 50.0347824871655],
            [-119.525678254225, 50.0347947111714],
            [-119.525713780419, 50.0348044073736],
            [-119.525735722938, 50.0348305704291],
            [-119.525723101961, 50.0348773281384],
            [-119.525734696588, 50.0348965451894],
            [-119.525724233038, 50.0349222358486],
            [-119.525694817, 50.0349382794151],
            [-119.52564715418, 50.0349785825053],
            [-119.52565364675, 50.0350219643375],
            [-119.525654707724, 50.0350639284635],
            [-119.525539181948, 50.0350671525088],
            [-119.525510107684, 50.0350854704526],
            [-119.525448823626, 50.0351151557009],
            [-119.525466453588, 50.0351445830829],
            [-119.525527084439, 50.0351275468586],
            [-119.525641738697, 50.0351194685697],
            [-119.525707631747, 50.0351100691033],
            [-119.525882657618, 50.03506455513],
            [-119.526027333374, 50.0350780953928],
            [-119.526150332417, 50.0351048022949],
            [-119.526259194238, 50.0350917644607],
            [-119.526151566556, 50.0340100459175],
            [-119.52645129141, 50.0330709320405],
            [-119.52600288, 50.0318361447441],
            [-119.524780497444, 50.0310824344586],
            [-119.527302785644, 50.0304339950961],
            [-119.52937990244, 50.0296489765647],
            [-119.531979344309, 50.0288463998861],
            [-119.532681988614, 50.0275508282605],
            [-119.53332931216, 50.0268129259777],
            [-119.534910911152, 50.0258571547244],
            [-119.537378602888, 50.0234058439821],
            [-119.538869564571, 50.0210605375882],
            [-119.541116519167, 50.0197197431226],
            [-119.542084796956, 50.0184356634578],
            [-119.542632062492, 50.0164906538928],
            [-119.543661344166, 50.0149893062713],
            [-119.544802256942, 50.0142610802535],
            [-119.545258748837, 50.0111690412176],
            [-119.548682951447, 50.0082088776216],
            [-119.549319499192, 50.0059353716064],
            [-119.550413726419, 50.0037067295384],
            [-119.552065494517, 50.0019886268082],
            [-119.554363206846, 50.0001309577471],
            [-119.557343228005, 49.9984774166934],
            [-119.559004440828, 49.9972153106225],
            [-119.560152364029, 49.9967933497691],
            [-119.560825877283, 49.9956009226685],
            [-119.563051828411, 49.9932237363622],
            [-119.563440397871, 49.9910487057661],
            [-119.564573314526, 49.9892763913319],
            [-119.564788902849, 49.9883871129817],
            [-119.568735423963, 49.9878327226627],
            [-119.570870198165, 49.9877115206713],
            [-119.572929273469, 49.9876611794471],
            [-119.574336052348, 49.9875031430789],
            [-119.575611903519, 49.987662341495],
            [-119.577629731066, 49.9886227950778],
            [-119.579668222897, 49.9891593040883],
            [-119.581450759399, 49.9891273269712],
            [-119.58356301493, 49.9888621168072],
            [-119.586111637701, 49.9886531489431],
            [-119.588500481753, 49.9889655503775],
            [-119.589730409484, 49.9893692302886],
            [-119.590812942592, 49.9899394384702],
            [-119.591989294468, 49.991005281952],
            [-119.593129684445, 49.9915834553954],
            [-119.595756866789, 49.9918348284779],
            [-119.596601453617, 49.9917872939937],
            [-119.597346963429, 49.9917140439027],
            [-119.599205253392, 49.9918724097474],
            [-119.600905994999, 49.9922614503503],
            [-119.601995793219, 49.992363209407],
            [-119.603571869452, 49.9916352538762],
            [-119.604470331151, 49.9911023360232],
            [-119.606074021112, 49.9907232455886],
            [-119.607261676217, 49.9908127268846],
            [-119.608390530642, 49.991157345563],
            [-119.609565905868, 49.9914296312394],
            [-119.611166940018, 49.9912536362121],
            [-119.612583911384, 49.9894086746272],
            [-119.613429319479, 49.9880571753413],
            [-119.614575022183, 49.9868526822845],
            [-119.615620707663, 49.9856006877198],
            [-119.616388865163, 49.9839959967467],
            [-119.616787058639, 49.9828556472507],
            [-119.616779267668, 49.98153139237],
            [-119.616749828904, 49.981262493325],
            [-119.617051379436, 49.9805770502269],
            [-119.617888961278, 49.9793148025056],
            [-119.618300657031, 49.9786715787236],
            [-119.61869583827, 49.9777228306671],
            [-119.619179853564, 49.9772261215463],
            [-119.619035861737, 49.9752426479026],
            [-119.61808838234, 49.9728134123697],
            [-119.617305917251, 49.9706752644149],
            [-119.616906823373, 49.9689158429094],
            [-119.618977454315, 49.9687832834627],
            [-119.619697091604, 49.9683309379988],
            [-119.620197329994, 49.968109150655],
            [-119.620613112064, 49.9679248045],
            [-119.621302796125, 49.967638270839],
            [-119.621775626156, 49.9675600864007],
            [-119.622183521585, 49.9674926367483],
            [-119.623051425833, 49.9672686244768],
            [-119.623681202683, 49.966776676695],
            [-119.623967484954, 49.9662603987672],
            [-119.624395482556, 49.9653555765438],
            [-119.624510852352, 49.9647231664136],
            [-119.62500871073, 49.964530497144],
            [-119.62556684216, 49.9645945369346],
            [-119.62627435075, 49.9646371372177],
            [-119.626972422736, 49.9643493268543],
            [-119.627411443128, 49.9643170591999],
            [-119.627837732127, 49.9642857258278],
            [-119.628030573555, 49.9642442247414],
            [-119.629003772855, 49.9640347762002],
            [-119.629390871667, 49.9636065460201],
            [-119.62929826994, 49.9632730697068],
            [-119.629199291151, 49.9629166261685],
            [-119.62915701122, 49.9622812364113],
            [-119.629536730178, 49.9618518980549],
            [-119.629398061883, 49.9614917857216],
            [-119.629539841037, 49.9611883665058],
            [-119.630264122305, 49.9607034861324],
            [-119.630804981767, 49.9600781065384],
            [-119.631179099803, 49.9591323337876],
            [-119.631363240933, 49.9581720956892],
            [-119.631310060105, 49.9575036953661],
            [-119.630672031376, 49.9571395257455],
            [-119.630662408365, 49.9570778341276],
            [-119.630609384258, 49.9567378351674],
            [-119.630595991064, 49.9566519460975],
            [-119.631009450734, 49.9562320056239],
            [-119.632053479914, 49.9557913056018],
            [-119.632519330412, 49.9552067353177],
            [-119.633141860739, 49.9549285757822],
            [-119.634165569464, 49.9546422450713],
            [-119.635179291508, 49.9545026447355],
            [-119.636149471598, 49.9546850147874],
            [-119.636284376536, 49.9545693753991],
            [-119.636528510028, 49.9543601049565],
            [-119.636602740109, 49.9542341260889],
            [-119.636864047402, 49.9537906361133],
            [-119.63696436578, 49.9536730513497],
            [-119.637312387313, 49.9533769023316],
            [-119.637792177026, 49.9530399110379],
            [-119.638201689849, 49.9526018739654],
            [-119.638620761236, 49.9526223542854],
            [-119.639068193531, 49.9528914999161],
            [-119.639226281215, 49.9529865949548],
            [-119.639544533693, 49.9525671752751],
            [-119.640028710081, 49.9520725745879],
            [-119.640338319373, 49.9519014360308],
            [-119.64057356007, 49.9517714037024],
            [-119.641386031168, 49.9515441243024],
            [-119.642017389543, 49.9516510015914],
            [-119.642281711482, 49.9516957441466],
            [-119.642552548833, 49.9517734590325],
            [-119.642676321473, 49.9518089736979],
            [-119.642859030163, 49.9515169918958],
            [-119.642930322162, 49.9514030637602],
            [-119.642853274871, 49.9510818967879],
            [-119.642746205943, 49.9507231479981],
            [-119.642634353102, 49.950507430492],
            [-119.64276305086, 49.9501971521273],
            [-119.643648452968, 49.9499046737437],
            [-119.644352119978, 49.9497837062689],
            [-119.644946200533, 49.9495124004481],
            [-119.64537614274, 49.9490197032723],
            [-119.645429292968, 49.9483923855333],
            [-119.645071478391, 49.9476594878869],
            [-119.644005348778, 49.9470135171506],
            [-119.643224300473, 49.9466774963951],
            [-119.64281297146, 49.9460105202835],
            [-119.642340468508, 49.9457488144038],
            [-119.6412443069, 49.945881693792],
            [-119.640051187906, 49.9458123342568],
            [-119.639471194465, 49.9457292574452],
            [-119.639227033829, 49.9446985715054],
            [-119.638848699776, 49.9436972677475],
            [-119.638816682003, 49.9430294900777],
            [-119.63723520481, 49.9422658361239],
            [-119.634601237991, 49.9412527042025],
            [-119.632268020911, 49.9401778933722],
            [-119.630235011733, 49.9396609176999],
            [-119.629210017614, 49.9390518433183],
            [-119.628785310247, 49.9381194382105],
            [-119.629620313159, 49.9367094107827],
            [-119.632005828814, 49.9357273168625],
            [-119.633409581349, 49.9349491499356],
            [-119.635369815473, 49.9336300928394],
            [-119.63737325117, 49.9322657464712],
            [-119.639932004313, 49.9295721714738],
            [-119.641711636842, 49.9282186247626],
            [-119.64438946766, 49.9275860681064],
            [-119.645607071416, 49.9276090605145],
            [-119.646803372647, 49.9267231430494],
            [-119.647725116971, 49.9251524617003],
            [-119.649517937782, 49.9239667696648],
            [-119.651399243005, 49.9240043642269],
            [-119.653330851669, 49.9242120461931],
            [-119.65502688755, 49.9243732239576],
            [-119.656522863438, 49.9241345391769],
            [-119.657453714888, 49.9243442755588],
            [-119.657590289183, 49.9247408117625],
            [-119.657418105123, 49.9252136414801],
            [-119.656891074701, 49.9255123589626],
            [-119.65682614856, 49.9261128343347],
            [-119.656508917501, 49.9263978387545],
            [-119.655822425834, 49.9268118353098],
            [-119.655187856114, 49.9272606305178],
            [-119.656700716546, 49.927346940242],
            [-119.65787111806, 49.9272580109182],
            [-119.659027246834, 49.9273217512763],
            [-119.65994338744, 49.9275721509505],
            [-119.660781408467, 49.9275807210244],
            [-119.661580258715, 49.927885470435],
            [-119.663386588977, 49.9278654207976],
            [-119.664651210248, 49.9279730760774],
            [-119.665423748137, 49.9278958696251],
            [-119.667752090144, 49.9275716631248],
            [-119.669330228156, 49.9272569599185],
            [-119.669857395204, 49.9270516763653],
            [-119.670356718636, 49.9268572293579],
            [-119.671166578859, 49.9263992588668],
            [-119.672631249376, 49.9255488293364],
            [-119.673179870176, 49.925111839789],
            [-119.67328256934, 49.924619118509],
            [-119.673979238693, 49.9244650984285],
            [-119.674566709945, 49.9246754198743],
            [-119.67540235894, 49.9247337682289],
            [-119.676527039489, 49.9247649083801],
            [-119.677716649339, 49.9243323584884],
            [-119.678430199288, 49.924307038656],
            [-119.679583099873, 49.9242057885675],
            [-119.682031830127, 49.9234750581851],
            [-119.683530570497, 49.923311537719],
            [-119.684396911348, 49.9230861890741],
            [-119.685105111886, 49.922676927842],
            [-119.685705396923, 49.9218819862649],
            [-119.686249437842, 49.9213272058383],
            [-119.686531582682, 49.9206233693813],
            [-119.686552930625, 49.9203270080914],
            [-119.686577953928, 49.91979190698],
            [-119.687176620703, 49.919291517671],
            [-119.687535549278, 49.9188263886435],
            [-119.687878729097, 49.9183816573702],
            [-119.688075708714, 49.917762706792],
            [-119.688138408951, 49.9172217969889],
            [-119.688382236323, 49.9165403195744],
            [-119.689148600163, 49.9160009426004],
            [-119.689623587715, 49.9152678316232],
            [-119.68969260462, 49.9144563510745],
            [-119.689115031282, 49.9137736089427],
            [-119.688056640678, 49.9134761314388],
            [-119.686494381793, 49.9131147196471],
            [-119.685045994295, 49.9126250116982],
            [-119.683984364924, 49.9121117435862],
            [-119.683440967464, 49.9114882572257],
            [-119.682821017243, 49.911190276476],
            [-119.682314826956, 49.9103883676857],
            [-119.682770997097, 49.9095410668644],
            [-119.68275918701, 49.9091194427332],
            [-119.682920479909, 49.9090149596038],
            [-119.682959284789, 49.9084678417645],
            [-119.682454412329, 49.9078415278856],
            [-119.681780489061, 49.9076182150906],
            [-119.680942480871, 49.907541577645],
            [-119.680185075116, 49.9072706381181],
            [-119.679689009597, 49.9070068385892],
            [-119.678088645231, 49.9067178878926],
            [-119.676346835259, 49.9065835676674],
            [-119.675497014922, 49.9060174679492],
            [-119.675318964682, 49.9054941977689],
            [-119.675343763565, 49.9050733579348],
            [-119.675116853307, 49.9044803082123],
            [-119.675035433949, 49.9039582181002],
            [-119.675178443879, 49.9035145880527],
            [-119.675648552865, 49.9026727674814],
            [-119.675625663857, 49.9023494880924],
            [-119.675023468986, 49.9018366814823],
            [-119.674943598988, 49.9015778777305],
            [-119.675099917816, 49.9011953037938],
            [-119.674835559266, 49.9008528846366],
            [-119.674836862286, 49.9005269705486],
            [-119.674617074092, 49.8994764862326],
            [-119.673998098927, 49.8982657762974],
            [-119.673695823093, 49.8967121153776],
            [-119.674229412583, 49.8953730679476],
            [-119.675030913294, 49.8942845447929],
            [-119.675936342702, 49.8929950594922],
            [-119.676258129642, 49.8922253065475],
            [-119.67603197103, 49.8913842559673],
            [-119.675236072788, 49.8906633291168],
            [-119.673618668296, 49.8897026751723],
            [-119.671276458574, 49.8884682542731],
            [-119.669733494324, 49.8878210161016],
            [-119.668598419787, 49.8876660177291],
            [-119.66670351521, 49.8878946808726],
            [-119.664110254684, 49.888261705866],
            [-119.664721311026, 49.887419295638],
            [-119.665090691844, 49.8864291415341],
            [-119.665175039311, 49.8848760215943],
            [-119.664883885997, 49.8839121078699],
            [-119.664589844583, 49.8830110069314],
            [-119.664143236349, 49.8820992188117],
            [-119.663159254972, 49.8809776648105],
            [-119.663622327158, 49.8803584616291],
            [-119.66401731157, 49.8798302877577],
            [-119.663041391132, 49.8791725051166],
            [-119.661074169429, 49.8789227076371],
            [-119.658625582706, 49.8787370630711],
            [-119.654813140177, 49.8787049739453],
            [-119.653855043301, 49.8783410519761],
            [-119.653054928254, 49.8780515479439],
            [-119.652425537012, 49.87784172675],
            [-119.651861862584, 49.8776538055949],
            [-119.651043722885, 49.8778134910959],
            [-119.650275773485, 49.8780607898151],
            [-119.649501449438, 49.8781494071013],
            [-119.64824844163, 49.8778979599073],
            [-119.647954922176, 49.8777173870434],
            [-119.647043356477, 49.8768974398851],
            [-119.646912400419, 49.8758842991306],
            [-119.646717194095, 49.8753794427616],
            [-119.646285884463, 49.8748561172673],
            [-119.645600012143, 49.874344972671],
            [-119.645177113054, 49.8739283035305],
            [-119.644736414652, 49.873957380822],
            [-119.644316360761, 49.8741467736022],
            [-119.643283592749, 49.8748373822957],
            [-119.642954272739, 49.8747892544393],
            [-119.642538018365, 49.8741280093751],
            [-119.642337526114, 49.8734877322302],
            [-119.641939191567, 49.873268924131],
            [-119.641143203313, 49.8733058402561],
            [-119.640719253626, 49.8731804360924],
            [-119.640209209819, 49.8728388281564],
            [-119.639997682854, 49.8725724469328],
            [-119.639951261178, 49.8722768485324],
            [-119.639657853451, 49.8720536520519],
            [-119.639124716328, 49.8720508679061],
            [-119.638585762564, 49.8721257282694],
            [-119.638033539219, 49.8720810428096],
            [-119.63747509943, 49.8720726325258],
            [-119.636942757738, 49.8721603394195],
            [-119.636102426739, 49.8723132676223],
            [-119.635386949806, 49.8724434682799],
            [-119.634947187187, 49.8725967615632],
            [-119.634578494932, 49.8728098934041],
            [-119.634020157346, 49.8732559200843],
            [-119.633710341713, 49.873423472941],
            [-119.633005060827, 49.8735285187965],
            [-119.631741380934, 49.8736480286205],
            [-119.63128742519, 49.8736115509444],
            [-119.630726065779, 49.8733585981166],
            [-119.63047003692, 49.8732856112887],
            [-119.630103973657, 49.8732372377205],
            [-119.629611836699, 49.8732909887756],
            [-119.62893310496, 49.8734602454157],
            [-119.628517926315, 49.8736269241474],
            [-119.628194715697, 49.8736411736123],
            [-119.627501133121, 49.87372159924],
            [-119.627179443073, 49.8739685914126],
            [-119.62692999633, 49.8743461026994],
            [-119.626327277037, 49.8745673516498],
            [-119.625979350252, 49.8747519886262],
            [-119.625792076341, 49.8749969937372],
            [-119.625474443109, 49.875452802407],
            [-119.625313777971, 49.8755705981939],
            [-119.624969237399, 49.8756812423566],
            [-119.624684887219, 49.8756475383319],
            [-119.624384621238, 49.8754382024944],
            [-119.623975553792, 49.8752177212605],
            [-119.623019945772, 49.8749189881534],
            [-119.622621069245, 49.8749754560977],
            [-119.622450933793, 49.8755007911794],
            [-119.622111346375, 49.8755158214573],
            [-119.621410201869, 49.8751831255777],
            [-119.620892357085, 49.8746352948235],
            [-119.620419281418, 49.8744911952304],
            [-119.61985097706, 49.8744825095101],
            [-119.618575806164, 49.8744834333898],
            [-119.616879042722, 49.8743493914003],
            [-119.61616255834, 49.8741880694071],
            [-119.615602630609, 49.8739642296797],
            [-119.614982665449, 49.873641323074],
            [-119.614432695533, 49.8733463923753],
            [-119.613949407019, 49.8731031359234],
            [-119.612937684728, 49.8731978741506],
            [-119.612106876406, 49.8730670399566],
            [-119.610917441176, 49.8731169016448],
            [-119.609391505773, 49.8731948378875],
            [-119.608418655205, 49.8732812352349],
            [-119.607389238931, 49.8735076450331],
            [-119.606333256701, 49.8739236002246],
            [-119.604477416547, 49.8739821538853],
            [-119.604031206062, 49.8738272018241],
            [-119.602888584843, 49.8742172609225],
            [-119.601927523789, 49.8746406354918],
            [-119.600883988857, 49.8743871733098],
            [-119.600327808653, 49.8743674473607],
            [-119.599042655952, 49.8749364345604],
            [-119.598175470059, 49.8760524817019],
            [-119.598328093104, 49.8787193979812],
            [-119.597860856358, 49.8790819777779],
            [-119.597105008916, 49.8800056220699],
            [-119.596200706216, 49.8795741724262],
            [-119.595347631549, 49.8794422781639],
            [-119.594655198227, 49.8797391978125],
            [-119.594035383938, 49.8798154862227],
            [-119.593996604813, 49.8803282326333],
            [-119.592839204096, 49.8806096943235],
            [-119.586940802148, 49.8822350402638],
            [-119.586057974422, 49.8827574651947],
            [-119.58383230665, 49.8827756231865],
            [-119.582995164471, 49.8824206640979],
            [-119.582925833255, 49.8816521370685],
            [-119.584830921785, 49.8802497372324],
            [-119.585141537502, 49.8799253777073],
            [-119.585177233256, 49.8792261623237],
            [-119.585278769876, 49.8785038393257],
            [-119.585322005652, 49.8780478271649],
            [-119.585337026639, 49.8776441058214],
            [-119.584912807071, 49.8763730872623],
            [-119.584896743902, 49.876323508917],
            [-119.584479091965, 49.8755841715615],
            [-119.584227008425, 49.8752996247014],
            [-119.583845134675, 49.8750479135078],
            [-119.583515818882, 49.8749038875443],
            [-119.582101170915, 49.8744117728552],
            [-119.581956316667, 49.8743742350219],
            [-119.581399381859, 49.8742750467134],
            [-119.581245359362, 49.8742593358542],
            [-119.581089792601, 49.874266204232],
            [-119.580410778935, 49.8743463120162],
            [-119.580280489097, 49.8743703568114],
            [-119.580159882576, 49.8744102768287],
            [-119.580053538577, 49.8744645562506],
            [-119.579762918959, 49.874807481057],
            [-119.579908000433, 49.8754504147739],
            [-119.579928666557, 49.8760450551835],
            [-119.580039629451, 49.8765910553749],
            [-119.58009792463, 49.8770665244673],
            [-119.580054644484, 49.8773741791195],
            [-119.579988789202, 49.877693993316],
            [-119.579369824389, 49.8785342568336],
            [-119.579166626982, 49.8789404040533],
            [-119.579040564778, 49.8792431921845],
            [-119.578777170684, 49.8794839567308],
            [-119.578274857362, 49.8796432398981],
            [-119.577806414547, 49.879710104741],
            [-119.576989921365, 49.8798778830953],
            [-119.57623550373, 49.8800493048523],
            [-119.575917579602, 49.879936197715],
            [-119.575477377241, 49.8798024083998],
            [-119.574867860829, 49.8796856312781],
            [-119.57406085256, 49.879341440154],
            [-119.573746706152, 49.8792015738005],
            [-119.573154155265, 49.8789644024935],
            [-119.572900209696, 49.8788415626235],
            [-119.572563495882, 49.878713852047],
            [-119.572010427863, 49.8786408409387],
            [-119.571555174915, 49.8786140457562],
            [-119.571551276811, 49.8786142704799],
            [-119.571346801384, 49.8787082740493],
            [-119.570011201474, 49.8789625190385],
            [-119.568102098367, 49.8799907038503],
            [-119.567592250267, 49.8799893454042],
            [-119.566138762809, 49.8797603947682],
            [-119.56491117216, 49.8796594039771],
            [-119.563797247297, 49.8803247967668],
            [-119.562977158237, 49.8811078326306],
            [-119.562334795662, 49.8823600249407],
            [-119.561786462493, 49.8834170792454],
            [-119.560696254818, 49.8843848530998],
            [-119.558846036105, 49.8855514806741],
            [-119.558373689789, 49.8863836601585],
            [-119.557714032453, 49.8873878670329],
            [-119.557612040921, 49.8881101556119],
            [-119.557500763249, 49.8886026143207],
            [-119.557260263701, 49.893746929211],
            [-119.556611454429, 49.8951993768957],
            [-119.55460314601, 49.8955969353855],
            [-119.553420142376, 49.8939217522356],
            [-119.553109128619, 49.8923553450005],
            [-119.551733791211, 49.8914141423486],
            [-119.550501466845, 49.8919720898694],
            [-119.548898767357, 49.895776286209],
            [-119.548996285293, 49.8992766338469],
            [-119.548130897462, 49.9010029300782],
            [-119.547251754292, 49.8996896426346],
            [-119.547229061337, 49.897968240104],
            [-119.547715022712, 49.8953623726392],
            [-119.54867015436, 49.8911185965657],
            [-119.547679543364, 49.8893400121806],
            [-119.545296845055, 49.8879951886104],
            [-119.543620658859, 49.8886119802841],
            [-119.542645670165, 49.8911601558867],
            [-119.540415294223, 49.8949405851477],
            [-119.539501929144, 49.8958421826029],
            [-119.539530373008, 49.8966202919809],
            [-119.538825777398, 49.8970265649959],
            [-119.538028430512, 49.8976548353252],
            [-119.53793961633, 49.8984905122633],
            [-119.537507037535, 49.8990382903804],
            [-119.53723157248, 49.8996319980452],
            [-119.53729777116, 49.9003064167561],
            [-119.537827895796, 49.9009493534918],
            [-119.537539493933, 49.9013145363669],
            [-119.537855810094, 49.9024226247895],
            [-119.537478978118, 49.9032030395753],
            [-119.536160412102, 49.9041570962035],
            [-119.535986009734, 49.9051788242398],
            [-119.536500262467, 49.9057252622489],
            [-119.536544883565, 49.9064541523503],
            [-119.536474411563, 49.9075775832865],
            [-119.5363944718, 49.9111682588107],
            [-119.536563649526, 49.9120621814231],
            [-119.536291254669, 49.912679147853],
            [-119.53618701141, 49.9135449539487],
            [-119.535790092141, 49.9142835591077],
            [-119.535338739121, 49.9147537682663],
            [-119.534265532892, 49.9154356457278],
            [-119.532936244026, 49.9160450293235],
            [-119.532406913173, 49.9167256198057],
            [-119.532232722517, 49.9174320017729],
            [-119.531421889195, 49.9178020913737],
            [-119.530192543225, 49.918123515952],
            [-119.529763803295, 49.9182773119851],
            [-119.529128873969, 49.91936254187],
            [-119.52819232867, 49.9202268509532],
            [-119.527543137246, 49.9206303730207],
            [-119.526453861085, 49.920876441873],
            [-119.525439037922, 49.9212108685832],
            [-119.524868655737, 49.9216186981975],
            [-119.52400450904, 49.9218422430349],
            [-119.52304022229, 49.9221195720158],
            [-119.522663085532, 49.9223002897637],
            [-119.522013814343, 49.9227037787577],
            [-119.521624366163, 49.9233615588277],
            [-119.521605527183, 49.924037276105],
            [-119.521309442667, 49.9244059891938],
            [-119.520638771496, 49.9245693059144],
            [-119.519440802461, 49.9249283167774],
            [-119.517224130435, 49.9250357969994],
            [-119.515547680175, 49.9251325638368],
            [-119.514795925559, 49.9250716252356],
            [-119.514125418149, 49.9251035192728],
            [-119.51206896819, 49.9251248411891],
            [-119.511762244528, 49.9261100169856],
            [-119.512115930006, 49.9271343831573],
            [-119.511718746339, 49.9283650327211],
            [-119.510856552986, 49.9293530750702],
            [-119.509799468819, 49.930150369388],
            [-119.508668327118, 49.930298230589],
            [-119.508885772684, 49.9308479978689],
            [-119.508931748203, 49.9313046353821],
            [-119.508749335165, 49.9316760450945],
            [-119.508433429387, 49.9320753628229],
            [-119.507857284081, 49.9324831195213],
            [-119.507172978449, 49.9329155199665],
            [-119.506081307829, 49.9341694024705],
            [-119.50616901763, 49.9345926837957],
            [-119.505768080138, 49.9349391662351],
            [-119.504303817882, 49.9367759953294],
            [-119.50219479415, 49.9379407549032],
            [-119.501153260622, 49.938237214018],
            [-119.500814237304, 49.9375003701486],
            [-119.499807476474, 49.9379422215422],
            [-119.498930353591, 49.9386426172665],
            [-119.498493597079, 49.9393691869889],
            [-119.497025357215, 49.9403211037441],
            [-119.497687506605, 49.9409257510328],
            [-119.497957180287, 49.9410558095097],
            [-119.498122448335, 49.9413112225557],
            [-119.498418761548, 49.941309725626],
            [-119.498627374458, 49.9410927836214],
            [-119.498878865662, 49.9407828320177],
            [-119.499551452797, 49.9408419218521],
            [-119.499932384902, 49.9412850239302],
            [-119.499656565199, 49.9417655396628],
            [-119.499882965275, 49.9420465603811],
            [-119.500429642749, 49.9423657277575],
            [-119.500785892396, 49.943189592667],
            [-119.500530945477, 49.9439389147367],
            [-119.499915903883, 49.9445139422868],
            [-119.49840836379, 49.9455328242893],
            [-119.497181652342, 49.9462434844807],
            [-119.496793726955, 49.94667910526],
            [-119.496072755175, 49.9467509087163],
            [-119.49564733484, 49.9472416300733],
            [-119.495318114013, 49.9476807362687],
            [-119.495546826212, 49.9481530197382],
            [-119.496357439995, 49.9486981249665],
            [-119.496468703397, 49.9491634219704],
            [-119.495989941635, 49.94961275061],
            [-119.495268923681, 49.9496845485796],
            [-119.495037120486, 49.9500133812045],
            [-119.494816404301, 49.9503647747264],
            [-119.494139532464, 49.9514426220509],
            [-119.493315826558, 49.9528358297177],
            [-119.493777483017, 49.9532844183869],
            [-119.494083889242, 49.9536275393961],
            [-119.494432799127, 49.9540878572893],
            [-119.494546762735, 49.9545342009795],
            [-119.494699718407, 49.9555371011065],
            [-119.494629102781, 49.9559118477271],
            [-119.494778503306, 49.9562298048771],
            [-119.494492116535, 49.9565758951594],
            [-119.494173647392, 49.956939189805],
            [-119.494391565705, 49.9574872723047],
            [-119.494241196056, 49.9579178969164],
            [-119.494368701235, 49.9582694868454],
            [-119.494623717482, 49.9589726657561],
            [-119.494555644631, 49.9596566326726],
            [-119.494484389262, 49.9602591873076],
            [-119.495441671086, 49.9610232238307],
            [-119.495552955056, 49.9614885148807],
            [-119.495736127246, 49.9620727451555],
            [-119.496074688193, 49.9623986518095],
            [-119.495940159571, 49.9629257748584],
            [-119.496278729686, 49.9632516805887],
            [-119.496328174802, 49.9639426299746],
            [-119.496049475465, 49.9644420709131],
            [-119.496099315034, 49.9649228170752],
            [-119.495887733019, 49.9655015778164],
            [-119.496277092242, 49.9655449450112],
            [-119.496436719134, 49.9658793242022],
            [-119.496371764658, 49.9663341360143],
            [-119.496197418888, 49.9667251107516],
            [-119.496599794259, 49.9672268060373],
            [-119.496323388695, 49.9679174970892],
            [-119.495877264411, 49.9686510724177],
            [-119.495267224699, 49.9693698681404],
            [-119.495306333507, 49.9698738643262],
            [-119.495752824059, 49.9713249195873],
            [-119.495765713362, 49.9732737114095],
            [-119.495817077148, 49.9743660988449],
            [-119.495910966756, 49.9755756749789],
            [-119.495364008898, 49.9759833631065],
            [-119.495341814934, 49.9765666691473],
            [-119.495662689462, 49.9768986958582],
            [-119.495840905028, 49.9773106175243],
            [-119.49571584875, 49.9778802656931],
            [-119.495818055463, 49.9780928113812],
            [-119.496028369462, 49.9784875277217],
            [-119.495629329021, 49.9789989259708],
            [-119.495657918536, 49.9794210658043],
            [-119.495322651595, 49.9801082498126],
            [-119.494731027556, 49.9807228660091],
            [-119.494032672464, 49.9812546922849],
            [-119.493890346322, 49.9816284526863],
            [-119.49385202434, 49.9821039492907],
            [-119.493405396624, 49.9823258465618],
            [-119.492373309657, 49.9828257181084],
            [-119.491757652105, 49.983279002842],
            [-119.491558401863, 49.9840507068947],
            [-119.49077992343, 49.9845204209819],
            [-119.489656050252, 49.9853326966587],
            [-119.489267720986, 49.9857682668743],
            [-119.488697750413, 49.9866882945236],
            [-119.489673082245, 49.9882917041433],
            [-119.490355048223, 49.988527562844],
            [-119.491319109782, 49.9888333171572],
            [-119.49142147404, 49.9889609072262],
            [-119.492188998806, 49.9895486544516],
            [-119.492250256754, 49.9895766557879],
            [-119.492947117932, 49.9898856235542],
            [-119.493165178947, 49.9904336831805],
            [-119.493844992876, 49.9912767310305],
            [-119.494487313299, 49.9921748765574],
            [-119.494255965792, 49.9929637797864],
            [-119.494264781164, 49.9939389464679],
            [-119.49461319663, 49.9948196246921],
            [-119.494311807659, 49.995891023196],
            [-119.493713324831, 49.9971740966135],
            [-119.494133690095, 49.9981737083616],
            [-119.493011428004, 49.9993874377528],
            [-119.492560951885, 49.9994738716542],
            [-119.492322677489, 50.0005364315228],
            [-119.491946300322, 50.0008965653718],
            [-119.492133480897, 50.0013800970825],
            [-119.492416219758, 50.001683554168],
            [-119.492968976886, 50.0019648325258],
            [-119.493441673792, 50.0021840201721],
            [-119.493724426335, 50.0024874735616],
            [-119.49349884167, 50.0030282761325],
            [-119.493045768514, 50.0037084442355],
            [-119.492999284723, 50.0042407742265],
            [-119.492912973014, 50.0046369649483],
            [-119.491871424629, 50.0054923814762],
            [-119.491806368252, 50.0059471662772],
            [-119.491633710732, 50.0067395425232],
            [-119.491485446939, 50.0073613745846],
            [-119.491652898868, 50.007849083273],
            [-119.491119672506, 50.0084671510908],
            [-119.491222476932, 50.0091994523094],
            [-119.491216217189, 50.0096577287739],
            [-119.49147418463, 50.0103419168623],
            [-119.49126751326, 50.0107500629756],
            [-119.490830176152, 50.0115267081383],
            [-119.490756966309, 50.01203833595],
            [-119.489782584234, 50.0126301837285],
            [-119.489094909184, 50.0130533162537],
            [-119.488945590025, 50.0136382160926],
            [-119.488806306716, 50.0140319946853],
            [-119.488573915787, 50.015137723149],
            [-119.488432633566, 50.0158184872215],
            [-119.488694517232, 50.0165022276994],
            [-119.488937065962, 50.0168797356588],
            [-119.489407185657, 50.0171178855041],
            [-119.48963261909, 50.0180294580348],
            [-119.489677027745, 50.0185480700761],
            [-119.490372839542, 50.0189441424094],
            [-119.490972110324, 50.0194467499815],
            [-119.491449982428, 50.0198382283407],
            [-119.491376766196, 50.0203498508571],
            [-119.490777881368, 50.021632865287],
            [-119.491044463451, 50.0220500115702],
            [-119.491213841699, 50.0229391323282],
            [-119.490796824081, 50.0241947276366],
            [-119.490828723433, 50.0243100017358],
            [-119.491039170355, 50.0250060905403],
            [-119.491187959318, 50.0251925688927],
            [-119.491465832426, 50.0253237325832],
            [-119.491772289805, 50.0258770100075],
            [-119.491748929032, 50.0268693357247],
            [-119.491412526148, 50.0275141287261],
            [-119.49214010969, 50.0278671683074],
            [-119.492281353459, 50.0281239832805],
            [-119.492628515175, 50.0283930253919],
            [-119.49265550291, 50.0289042929748],
            [-119.492940020203, 50.0291185834153],
            [-119.492630461868, 50.0293098885795],
            [-119.492336879192, 50.0298089412469],
            [-119.492590376025, 50.0301106402697],
            [-119.492800790718, 50.030264433515],
            [-119.493028850504, 50.030536905918],
            [-119.493072771937, 50.0306446172275],
            [-119.493175530719, 50.030755821753],
            [-119.493445308946, 50.0309438255137],
            [-119.493711022163, 50.0311602524978],
            [-119.49385404805, 50.0311974077203],
            [-119.494077803961, 50.0309813739348],
            [-119.49418273056, 50.0306627379011],
            [-119.494584345403, 50.0304477075404],
            [-119.495712533754, 50.0303493275751],
            [-119.49769938174, 50.0302408196987],
            [-119.497963562055, 50.0305718021041],
            [-119.498188458104, 50.0311775408093],
            [-119.498970777363, 50.0319310038375],
            [-119.499268861725, 50.0327512831978],
            [-119.49963765861, 50.0351522871826],
            [-119.499798717069, 50.0355822458077],
            [-119.500297565424, 50.0363475410688],
            [-119.501311696974, 50.0369331795117],
            [-119.502220252564, 50.0379592286078],
            [-119.502533034516, 50.0383659271056],
            [-119.502848195694, 50.0383666926388],
            [-119.502999318132, 50.0384771686699],
            [-119.503088385806, 50.0386974265838],
            [-119.502807347513, 50.0387822880689],
            [-119.502693510041, 50.0388651145314],
            [-119.502760346061, 50.0393706950925],
            [-119.502920323057, 50.0396787583384],
            [-119.502941641778, 50.0399188875598],
            [-119.503675223371, 50.0401713717887],
            [-119.504501212028, 50.0401665721991],
            [-119.505359419634, 50.0403905987946],
            [-119.506198618252, 50.0404880878852],
            [-119.506389483653, 50.040839775743],
            [-119.50561170716, 50.0419999643261],
            [-119.50574169631, 50.0432581173122],
            [-119.505384809049, 50.0438866840614],
            [-119.505223428466, 50.0443930694205],
            [-119.505492278335, 50.0452115757638],
            [-119.506278364305, 50.0455256647011],
            [-119.506988385247, 50.0449180113011],
            [-119.506735404183, 50.0441959943706],
            [-119.507096018409, 50.0429179374883],
            [-119.507984924657, 50.0416807204543],
            [-119.509172597992, 50.040532844843],
            [-119.510485546536, 50.0400659702782],
            [-119.512011492207, 50.0393176223553],
            [-119.513134798315, 50.03933201225],
            [-119.513863847465, 50.039291550709],
            [-119.514753145942, 50.039427767906],
            [-119.515796332071, 50.039525308737],
            [-119.516824507619, 50.0395980649522],
            [-119.517723954568, 50.039663199226],
            [-119.518827388769, 50.0397284437549],
            [-119.519874141925, 50.0396708970781],
            [-119.520984508534, 50.0395573835635],
            [-119.522362459868, 50.0393880145935],
            [-119.523322844319, 50.0393088925715],
            [-119.523887097672, 50.0391420812511],
            [-119.524700142445, 50.0389512483929],
            [-119.525463653251, 50.0384604992527],
            [-119.525508432065, 50.0373243573478],
            [-119.525546702493, 50.0372181937811],
            [-119.525470527844, 50.0372027041058],
            [-119.525436018092, 50.0371865860842],
            [-119.525410641887, 50.0371409614143],
            [-119.52540581914, 50.0370909427287],
            [-119.525358056747, 50.0370526506481],
            [-119.525354157034, 50.0370123822668],
            [-119.52537535517, 50.0369737344703],
            [-119.525392584031, 50.0369529086044],
            [-119.525372241075, 50.0369140017317],
            [-119.525371463319, 50.0368552267085],
            [-119.52539372434, 50.0367909442133],
            [-119.525443876239, 50.0367046618691],
            [-119.525474081819, 50.0366719401708],
            [-119.525618092308, 50.0366426236698],
            [-119.525682257473, 50.0366341123925],
            [-119.525703738786, 50.0364761462271],
            [-119.525637782844, 50.0364419136898],
            [-119.525575327718, 50.0364380739624],
            [-119.525454594134, 50.0364427617579],
            [-119.525418013817, 50.0364428706299],
            [-119.525380991158, 50.0364290569476],
            [-119.525382422346, 50.0363682655654],
            [-119.525386311619, 50.0363253534856],
            [-119.525437080691, 50.0362875920115],
            [-119.525432515702, 50.0362231052709],
            [-119.525380180251, 50.036213762204],
            [-119.525327561511, 50.0361817318853],
            [-119.525308628815, 50.0361369408946],
            [-119.52532627963, 50.0361194594619],
            [-119.525511628064, 50.0360805112392],
            [-119.525597793538, 50.0360512745411],
            [-119.525592009065, 50.0360011773237],
            [-119.525531559216, 50.0359551573456],
            [-119.525450050996, 50.0359218756362],
            [-119.525369083007, 50.0358111152602],
            [-119.525306414441, 50.0357893895624],
            [-119.525285915542, 50.0357438451866],
            [-119.525264549497, 50.0356725087292],
            [-119.525257460439, 50.0356543125138],
            [-119.525232127506, 50.0356450856204],
            [-119.525178357945, 50.0356131885007],
            [-119.52515741545, 50.0355889992255],
            [-119.525176238778, 50.0355661279874]
          ]
        ]
      },
      "properties": {
        "FIRE_NUMBER": "K52767",
        "VERSION_NUMBER": 2023090802,
        "FIRE_YEAR": 2023,
        "FIRE_CAUSE": "Unknown",
        "FIRE_LABEL": "2023-K52767",
        "FIRE_SIZE_HECTARES": 13970.4,
        "SOURCE": "2023 ROLLOVER",
        "GPS_TRACK_DATE": 1694131200000,
        "LOAD_DATE": 1694131200000,
        "FIRE_DATE": 1692057600000,
        "CREATION_METHOD": "Hand sketch of any type",
        "FEATURE_CODE": "JA70003000",
        "OBJECTID": 2193316,
        "FEATURE_AREA_SQM": 139704001.1025,
        "FEATURE_LENGTH_M": 70133.4711,
        "SHAPE.AREA": 0,
        "SHAPE.LEN": 0
      }
    }
  ]
}