{
  "type": "FeatureCollection",
  "metadata": {
    "description": "Road closure geometry snapped to real OSM roads via Mapbox Map Matching",
    "source": "Generated from road_closures.json waypoints \u2014 do not edit by hand",
    "script": "backend/scripts/snap_closures_to_roads.py",
    "processed": [
      "closure_001",
      "closure_002",
      "closure_003",
      "closure_004"
    ]
  },
  "features": [
    {
      "type": "Feature",
      "geometry": {
        "coordinates": [
          [
            -119.536352,
            49.882769
          ],
          [
            -119.536473,
            49.882827
          ],
          [
            -119.53671,
            49.882929
          ],
          [
            -119.536958,
            49.883016
          ],
          [
            -119.537205,
            49.883085
          ],
          [
            -119.537403,
            49.88313
          ],
          [
            -119.537727,
            49.883191
          ],
          [
            -119.538017,
            49.883228
          ],
          [
            -119.538852,
            49.883325
          ],
          [
            -119.539045,
            49.883316
          ],
          [
            -119.539208,
            49.883311
          ],
          [
            -119.539889,
            49.88338
          ],
          [
            -119.540861,
            49.883515
          ],
          [
            -119.541184,
            49.883587
          ],
          [
            -119.541501,
            49.883671
          ],
          [
            -119.541783,
            49.88376
          ],
          [
            -119.542065,
            49.883863
          ],
          [
            -119.542527,
            49.884086
          ],
          [
            -119.542947,
            49.884326
          ],
          [
            -119.543143,
            49.88447
          ],
          [
            -119.543287,
            49.884579
          ],
          [
            -119.543319,
            49.884607
          ],
          [
            -119.543407,
            49.884684
          ],
          [
            -119.54346,
            49.884734
          ],
          [
            -119.543559,
            49.88483
          ],
          [
            -119.543674,
            49.884967
          ],
          [
            -119.543779,
            49.885106
          ],
          [
            -119.544023,
            49.885478
          ],
          [
            -119.54424,
            49.885936
          ],
          [
            -119.544243,
            49.885948
          ],
          [
            -119.544308,
            49.886144
          ],
          [
            -119.54436,
            49.886349
          ],
          [
            -119.544424,
            49.886728
          ],
          [
            -119.54443,
            49.887015
          ],
          [
            -119.544416,
            49.887317
          ],
          [
            -119.544392,
            49.88748
          ],
          [
            -119.544377,
            49.887564
          ],
          [
            -119.544297,
            49.887869
          ],
          [
            -119.544006,
            49.888612
          ],
          [
            -119.543273,
            49.890308
          ],
          [
            -119.542773,
            49.89167
          ],
          [
            -119.542709,
            49.891841
          ],
          [
            -119.542305,
            49.892933
          ],
          [
            -119.54222,
            49.893184
          ],
          [
            -119.542165,
            49.893344
          ],
          [
            -119.542061,
            49.893617
          ],
          [
            -119.542022,
            49.893721
          ],
          [
            -119.541936,
            49.893964
          ],
          [
            -119.541781,
            49.89446
          ],
          [
            -119.541667,
            49.894772
          ],
          [
            -119.541528,
            49.895107
          ],
          [
            -119.54139,
            49.895359
          ],
          [
            -119.541228,
            49.895602
          ],
          [
            -119.540353,
            49.896516
          ],
          [
            -119.540242,
            49.896676
          ],
          [
            -119.540162,
            49.896836
          ],
          [
            -119.540114,
            49.897014
          ],
          [
            -119.540091,
            49.897192
          ],
          [
            -119.540028,
            49.898546
          ],
          [
            -119.539997,
            49.898845
          ],
          [
            -119.539944,
            49.899175
          ],
          [
            -119.539844,
            49.899575
          ],
          [
            -119.539726,
            49.899947
          ],
          [
            -119.539618,
            49.900243
          ],
          [
            -119.539177,
            49.901452
          ],
          [
            -119.53911,
            49.901646
          ],
          [
            -119.539073,
            49.901957
          ],
          [
            -119.539149,
            49.902856
          ],
          [
            -119.539119,
            49.903087
          ],
          [
            -119.53911,
            49.903115
          ],
          [
            -119.539077,
            49.90321
          ],
          [
            -119.539036,
            49.903332
          ],
          [
            -119.538876,
            49.903544
          ],
          [
            -119.538519,
            49.903825
          ],
          [
            -119.537426,
            49.904487
          ],
          [
            -119.537258,
            49.904656
          ],
          [
            -119.537158,
            49.904844
          ],
          [
            -119.537157,
            49.904961
          ],
          [
            -119.53718,
            49.905082
          ],
          [
            -119.537357,
            49.905386
          ],
          [
            -119.53754,
            49.905702
          ],
          [
            -119.537611,
            49.905939
          ],
          [
            -119.537643,
            49.906092
          ],
          [
            -119.537643,
            49.906279
          ],
          [
            -119.537475,
            49.906947
          ],
          [
            -119.53744,
            49.907131
          ],
          [
            -119.537427,
            49.907273
          ],
          [
            -119.537419,
            49.907376
          ],
          [
            -119.537521,
            49.907865
          ],
          [
            -119.537601,
            49.908361
          ],
          [
            -119.537597,
            49.908653
          ],
          [
            -119.537572,
            49.908782
          ],
          [
            -119.537533,
            49.908993
          ],
          [
            -119.537504,
            49.909233
          ],
          [
            -119.537509,
            49.909488
          ],
          [
            -119.5376,
            49.909981
          ],
          [
            -119.537678,
            49.910202
          ],
          [
            -119.537797,
            49.910534
          ],
          [
            -119.53784,
            49.910655
          ],
          [
            -119.537931,
            49.911226
          ],
          [
            -119.537924,
            49.911704
          ],
          [
            -119.537665,
            49.912461
          ],
          [
            -119.537564,
            49.913294
          ],
          [
            -119.537476,
            49.913583
          ],
          [
            -119.537326,
            49.913885
          ],
          [
            -119.53712,
            49.914157
          ],
          [
            -119.536481,
            49.91463
          ],
          [
            -119.536293,
            49.914867
          ],
          [
            -119.535949,
            49.915595
          ],
          [
            -119.535757,
            49.915841
          ],
          [
            -119.535585,
            49.915993
          ],
          [
            -119.534789,
            49.916381
          ],
          [
            -119.534362,
            49.916702
          ],
          [
            -119.534173,
            49.916915
          ],
          [
            -119.534079,
            49.917021
          ],
          [
            -119.533838,
            49.917398
          ],
          [
            -119.533257,
            49.918312
          ],
          [
            -119.533078,
            49.918505
          ],
          [
            -119.532841,
            49.918679
          ],
          [
            -119.532506,
            49.918827
          ],
          [
            -119.532133,
            49.918913
          ],
          [
            -119.531421,
            49.918977
          ],
          [
            -119.531004,
            49.919015
          ],
          [
            -119.530478,
            49.919123
          ],
          [
            -119.530144,
            49.919262
          ],
          [
            -119.529791,
            49.919484
          ],
          [
            -119.528898,
            49.920433
          ],
          [
            -119.528599,
            49.92066
          ],
          [
            -119.528285,
            49.920831
          ],
          [
            -119.527743,
            49.921029
          ],
          [
            -119.526134,
            49.921358
          ],
          [
            -119.52471,
            49.921883
          ],
          [
            -119.52315,
            49.922233
          ],
          [
            -119.522771,
            49.922374
          ],
          [
            -119.52241,
            49.922573
          ],
          [
            -119.522176,
            49.922767
          ],
          [
            -119.521913,
            49.923071
          ],
          [
            -119.521802,
            49.923309
          ],
          [
            -119.521666,
            49.92399
          ],
          [
            -119.521523,
            49.924257
          ],
          [
            -119.521356,
            49.92443
          ],
          [
            -119.52096,
            49.92463
          ],
          [
            -119.519581,
            49.924984
          ],
          [
            -119.518789,
            49.925079
          ],
          [
            -119.515923,
            49.925141
          ],
          [
            -119.51424,
            49.925302
          ],
          [
            -119.513614,
            49.925397
          ],
          [
            -119.513174,
            49.925573
          ],
          [
            -119.512858,
            49.925777
          ],
          [
            -119.512595,
            49.926085
          ],
          [
            -119.512353,
            49.926496
          ],
          [
            -119.512395,
            49.92747
          ],
          [
            -119.512401,
            49.927682
          ],
          [
            -119.512329,
            49.927906
          ],
          [
            -119.512296,
            49.92801
          ],
          [
            -119.512203,
            49.928131
          ],
          [
            -119.51215,
            49.928201
          ],
          [
            -119.512027,
            49.928364
          ],
          [
            -119.511856,
            49.928588
          ],
          [
            -119.511795,
            49.928631
          ],
          [
            -119.511361,
            49.929241
          ],
          [
            -119.51125,
            49.929483
          ],
          [
            -119.510971,
            49.930322
          ],
          [
            -119.510564,
            49.930971
          ],
          [
            -119.510545,
            49.931152
          ],
          [
            -119.51068,
            49.931724
          ],
          [
            -119.510683,
            49.932066
          ],
          [
            -119.510627,
            49.932251
          ],
          [
            -119.510503,
            49.932449
          ],
          [
            -119.510427,
            49.932522
          ],
          [
            -119.509675,
            49.933252
          ],
          [
            -119.509548,
            49.933481
          ],
          [
            -119.50953,
            49.933656
          ],
          [
            -119.509855,
            49.934523
          ],
          [
            -119.50994,
            49.934756
          ],
          [
            -119.510122,
            49.935253
          ],
          [
            -119.510143,
            49.935391
          ],
          [
            -119.510167,
            49.935548
          ],
          [
            -119.510126,
            49.935804
          ],
          [
            -119.510117,
            49.935817
          ],
          [
            -119.509959,
            49.936042
          ],
          [
            -119.50964,
            49.936248
          ],
          [
            -119.507859,
            49.93697
          ],
          [
            -119.507653,
            49.937124
          ],
          [
            -119.507363,
            49.9375
          ],
          [
            -119.506998,
            49.937975
          ],
          [
            -119.506355,
            49.938573
          ],
          [
            -119.505394,
            49.939221
          ],
          [
            -119.505209,
            49.939397
          ],
          [
            -119.505079,
            49.939617
          ],
          [
            -119.504993,
            49.939878
          ],
          [
            -119.504719,
            49.94072
          ],
          [
            -119.504443,
            49.941208
          ],
          [
            -119.503439,
            49.942301
          ],
          [
            -119.502558,
            49.94307
          ],
          [
            -119.50244,
            49.943262
          ],
          [
            -119.502406,
            49.943427
          ],
          [
            -119.502519,
            49.944353
          ],
          [
            -119.50269,
            49.944893
          ],
          [
            -119.502552,
            49.945955
          ],
          [
            -119.502472,
            49.946178
          ],
          [
            -119.502299,
            49.94644
          ],
          [
            -119.50213,
            49.946611
          ],
          [
            -119.501873,
            49.946776
          ],
          [
            -119.501578,
            49.946884
          ],
          [
            -119.501205,
            49.946967
          ],
          [
            -119.500804,
            49.947009
          ],
          [
            -119.500451,
            49.947003
          ],
          [
            -119.5,
            49.946923
          ],
          [
            -119.499646,
            49.946859
          ],
          [
            -119.499365,
            49.946849
          ],
          [
            -119.499103,
            49.946899
          ],
          [
            -119.49894,
            49.947004
          ],
          [
            -119.498784,
            49.947198
          ],
          [
            -119.498719,
            49.947424
          ],
          [
            -119.498756,
            49.948343
          ],
          [
            -119.498818,
            49.948494
          ],
          [
            -119.499057,
            49.948735
          ],
          [
            -119.499185,
            49.948945
          ],
          [
            -119.499293,
            49.949436
          ],
          [
            -119.499284,
            49.9496
          ],
          [
            -119.499199,
            49.949755
          ],
          [
            -119.498958,
            49.949976
          ],
          [
            -119.498852,
            49.950168
          ],
          [
            -119.498687,
            49.950817
          ],
          [
            -119.498482,
            49.951053
          ],
          [
            -119.498221,
            49.951237
          ],
          [
            -119.497933,
            49.951364
          ],
          [
            -119.497642,
            49.951444
          ],
          [
            -119.496985,
            49.951515
          ],
          [
            -119.49657,
            49.951584
          ],
          [
            -119.496316,
            49.951677
          ],
          [
            -119.496155,
            49.951795
          ],
          [
            -119.495954,
            49.951994
          ],
          [
            -119.495531,
            49.952782
          ],
          [
            -119.495314,
            49.953046
          ],
          [
            -119.49524,
            49.953231
          ],
          [
            -119.495277,
            49.953462
          ],
          [
            -119.495391,
            49.953691
          ],
          [
            -119.495567,
            49.953922
          ],
          [
            -119.495982,
            49.954327
          ],
          [
            -119.496129,
            49.954525
          ],
          [
            -119.496205,
            49.954728
          ],
          [
            -119.496199,
            49.954931
          ],
          [
            -119.495672,
            49.95606
          ],
          [
            -119.495293,
            49.958253
          ],
          [
            -119.495327,
            49.958545
          ],
          [
            -119.495516,
            49.959206
          ],
          [
            -119.495493,
            49.959444
          ],
          [
            -119.495381,
            49.959812
          ],
          [
            -119.495389,
            49.960019
          ],
          [
            -119.495475,
            49.960211
          ],
          [
            -119.495938,
            49.96068
          ],
          [
            -119.496162,
            49.961005
          ],
          [
            -119.496333,
            49.961526
          ],
          [
            -119.496585,
            49.961915
          ],
          [
            -119.496681,
            49.962444
          ],
          [
            -119.497077,
            49.963298
          ],
          [
            -119.497321,
            49.963986
          ],
          [
            -119.497362,
            49.964873
          ],
          [
            -119.497436,
            49.965269
          ],
          [
            -119.497817,
            49.966372
          ],
          [
            -119.497958,
            49.966627
          ],
          [
            -119.49798,
            49.966828
          ],
          [
            -119.497896,
            49.967186
          ],
          [
            -119.497337,
            49.968362
          ],
          [
            -119.497001,
            49.968957
          ],
          [
            -119.496547,
            49.969695
          ],
          [
            -119.496438,
            49.969882
          ],
          [
            -119.496325,
            49.970105
          ],
          [
            -119.496266,
            49.970259
          ],
          [
            -119.496213,
            49.970448
          ],
          [
            -119.496187,
            49.970602
          ],
          [
            -119.496176,
            49.970804
          ],
          [
            -119.496184,
            49.971027
          ],
          [
            -119.496256,
            49.971334
          ],
          [
            -119.496347,
            49.97158
          ],
          [
            -119.496449,
            49.971815
          ],
          [
            -119.496519,
            49.971998
          ],
          [
            -119.496563,
            49.972146
          ],
          [
            -119.496599,
            49.97231
          ],
          [
            -119.496627,
            49.97254
          ],
          [
            -119.496645,
            49.972859
          ],
          [
            -119.496664,
            49.973183
          ],
          [
            -119.496681,
            49.973328
          ],
          [
            -119.496708,
            49.97348
          ],
          [
            -119.496754,
            49.973649
          ],
          [
            -119.496814,
            49.973818
          ],
          [
            -119.496954,
            49.974174
          ],
          [
            -119.497006,
            49.974361
          ],
          [
            -119.497044,
            49.97452
          ],
          [
            -119.497065,
            49.97472
          ],
          [
            -119.497086,
            49.974942
          ],
          [
            -119.497135,
            49.975329
          ],
          [
            -119.497162,
            49.975459
          ],
          [
            -119.497204,
            49.975605
          ],
          [
            -119.497255,
            49.975746
          ],
          [
            -119.497334,
            49.975902
          ],
          [
            -119.49744,
            49.976059
          ],
          [
            -119.497588,
            49.976249
          ],
          [
            -119.497793,
            49.976509
          ],
          [
            -119.498138,
            49.97693
          ],
          [
            -119.498233,
            49.97707
          ],
          [
            -119.498322,
            49.977221
          ],
          [
            -119.498465,
            49.977543
          ],
          [
            -119.498654,
            49.978025
          ],
          [
            -119.498759,
            49.978238
          ],
          [
            -119.498873,
            49.978417
          ],
          [
            -119.498999,
            49.978581
          ],
          [
            -119.499375,
            49.979034
          ],
          [
            -119.499535,
            49.979296
          ],
          [
            -119.499641,
            49.979526
          ],
          [
            -119.499687,
            49.979657
          ],
          [
            -119.499717,
            49.979787
          ],
          [
            -119.499737,
            49.979984
          ],
          [
            -119.499734,
            49.980189
          ],
          [
            -119.499705,
            49.980366
          ],
          [
            -119.499642,
            49.98058
          ],
          [
            -119.499587,
            49.980725
          ],
          [
            -119.499505,
            49.980886
          ],
          [
            -119.499405,
            49.981051
          ],
          [
            -119.499323,
            49.981163
          ],
          [
            -119.499223,
            49.981291
          ],
          [
            -119.499052,
            49.981463
          ],
          [
            -119.498403,
            49.98204
          ],
          [
            -119.497735,
            49.982628
          ],
          [
            -119.497401,
            49.982861
          ],
          [
            -119.497318,
            49.982902
          ],
          [
            -119.49711,
            49.983006
          ],
          [
            -119.496602,
            49.983173
          ],
          [
            -119.496045,
            49.983357
          ],
          [
            -119.495801,
            49.983478
          ],
          [
            -119.495461,
            49.983728
          ],
          [
            -119.494812,
            49.984436
          ],
          [
            -119.494589,
            49.98483
          ],
          [
            -119.494451,
            49.986195
          ],
          [
            -119.494426,
            49.986429
          ],
          [
            -119.494416,
            49.986619
          ],
          [
            -119.494434,
            49.986745
          ],
          [
            -119.494472,
            49.986912
          ],
          [
            -119.494534,
            49.987046
          ],
          [
            -119.494635,
            49.987196
          ],
          [
            -119.494894,
            49.987466
          ],
          [
            -119.495143,
            49.987696
          ],
          [
            -119.495258,
            49.987808
          ],
          [
            -119.495348,
            49.987907
          ],
          [
            -119.495444,
            49.988039
          ],
          [
            -119.495514,
            49.988156
          ],
          [
            -119.495574,
            49.988302
          ],
          [
            -119.495608,
            49.988434
          ],
          [
            -119.495631,
            49.988616
          ],
          [
            -119.495654,
            49.988819
          ],
          [
            -119.495676,
            49.98904
          ],
          [
            -119.495692,
            49.989154
          ],
          [
            -119.495718,
            49.989269
          ],
          [
            -119.495766,
            49.989381
          ],
          [
            -119.495832,
            49.989498
          ],
          [
            -119.496081,
            49.989796
          ],
          [
            -119.496328,
            49.990053
          ],
          [
            -119.496373,
            49.99011
          ],
          [
            -119.496408,
            49.990168
          ],
          [
            -119.496431,
            49.990234
          ],
          [
            -119.496445,
            49.990318
          ],
          [
            -119.496435,
            49.990406
          ],
          [
            -119.496396,
            49.990497
          ],
          [
            -119.496336,
            49.990588
          ],
          [
            -119.495944,
            49.990982
          ],
          [
            -119.495861,
            49.991092
          ],
          [
            -119.495782,
            49.991223
          ],
          [
            -119.495174,
            49.992575
          ],
          [
            -119.495087,
            49.992843
          ],
          [
            -119.495032,
            49.993117
          ],
          [
            -119.495021,
            49.993399
          ],
          [
            -119.495021,
            49.993685
          ],
          [
            -119.495038,
            49.994269
          ],
          [
            -119.494917,
            49.995027
          ],
          [
            -119.494932,
            49.995403
          ],
          [
            -119.495076,
            49.99631
          ],
          [
            -119.495173,
            49.997001
          ],
          [
            -119.495599,
            50
          ],
          [
            -119.495723,
            50.000877
          ],
          [
            -119.495712,
            50.001024
          ],
          [
            -119.495702,
            50.001168
          ],
          [
            -119.495647,
            50.001349
          ],
          [
            -119.495602,
            50.001493
          ],
          [
            -119.495463,
            50.001761
          ],
          [
            -119.495291,
            50.002114
          ],
          [
            -119.494815,
            50.004453
          ],
          [
            -119.494765,
            50.005145
          ],
          [
            -119.494689,
            50.005362
          ],
          [
            -119.494489,
            50.005656
          ],
          [
            -119.494416,
            50.005869
          ],
          [
            -119.494363,
            50.006344
          ],
          [
            -119.494356,
            50.006415
          ],
          [
            -119.494254,
            50.007327
          ],
          [
            -119.494255,
            50.007877
          ],
          [
            -119.494186,
            50.008194
          ],
          [
            -119.494018,
            50.008518
          ],
          [
            -119.493913,
            50.008643
          ],
          [
            -119.493591,
            50.009026
          ],
          [
            -119.493473,
            50.009235
          ],
          [
            -119.493392,
            50.009487
          ],
          [
            -119.493372,
            50.009775
          ],
          [
            -119.493408,
            50.010039
          ],
          [
            -119.493517,
            50.010326
          ],
          [
            -119.493914,
            50.010912
          ],
          [
            -119.49392,
            50.010921
          ],
          [
            -119.494043,
            50.0113
          ],
          [
            -119.49431,
            50.012011
          ],
          [
            -119.494351,
            50.01228
          ],
          [
            -119.494312,
            50.01253
          ],
          [
            -119.493929,
            50.01383
          ],
          [
            -119.493921,
            50.014309
          ],
          [
            -119.493953,
            50.014468
          ],
          [
            -119.494146,
            50.015428
          ],
          [
            -119.494209,
            50.015627
          ],
          [
            -119.494481,
            50.016486
          ],
          [
            -119.494561,
            50.016857
          ],
          [
            -119.494557,
            50.017338
          ],
          [
            -119.4944,
            50.018603
          ],
          [
            -119.494596,
            50.019241
          ],
          [
            -119.494579,
            50.019535
          ],
          [
            -119.494349,
            50.020135
          ],
          [
            -119.49432,
            50.02021
          ],
          [
            -119.494298,
            50.020469
          ],
          [
            -119.494376,
            50.020845
          ],
          [
            -119.494335,
            50.021081
          ],
          [
            -119.494257,
            50.021232
          ],
          [
            -119.493967,
            50.021796
          ],
          [
            -119.493896,
            50.022094
          ],
          [
            -119.493964,
            50.023394
          ],
          [
            -119.494063,
            50.02367
          ],
          [
            -119.494421,
            50.024263
          ],
          [
            -119.494806,
            50.025072
          ],
          [
            -119.495176,
            50.025669
          ],
          [
            -119.495336,
            50.026038
          ],
          [
            -119.495417,
            50.026372
          ],
          [
            -119.495552,
            50.026928
          ],
          [
            -119.495816,
            50.02763
          ],
          [
            -119.496006,
            50.028001
          ],
          [
            -119.496232,
            50.028298
          ],
          [
            -119.496943,
            50.02904
          ],
          [
            -119.497247,
            50.029448
          ],
          [
            -119.497627,
            50.030194
          ],
          [
            -119.497742,
            50.030417
          ],
          [
            -119.497925,
            50.030763
          ],
          [
            -119.498018,
            50.030934
          ],
          [
            -119.498128,
            50.031105
          ],
          [
            -119.498278,
            50.031405
          ],
          [
            -119.498514,
            50.031684
          ],
          [
            -119.498735,
            50.03191
          ],
          [
            -119.498867,
            50.032081
          ],
          [
            -119.498991,
            50.032277
          ],
          [
            -119.499109,
            50.032519
          ],
          [
            -119.499177,
            50.032712
          ],
          [
            -119.49924,
            50.032973
          ],
          [
            -119.499275,
            50.033214
          ],
          [
            -119.499303,
            50.033549
          ],
          [
            -119.499315,
            50.033865
          ],
          [
            -119.499326,
            50.034134
          ],
          [
            -119.499358,
            50.034354
          ],
          [
            -119.49942,
            50.034663
          ],
          [
            -119.49948,
            50.035004
          ],
          [
            -119.49952,
            50.035129
          ],
          [
            -119.499571,
            50.035255
          ],
          [
            -119.499756,
            50.03567
          ],
          [
            -119.499901,
            50.035953
          ],
          [
            -119.5,
            50.036097
          ],
          [
            -119.500133,
            50.036258
          ],
          [
            -119.500237,
            50.03636
          ],
          [
            -119.50035,
            50.03645
          ],
          [
            -119.500714,
            50.036681
          ],
          [
            -119.500914,
            50.036817
          ],
          [
            -119.501117,
            50.03697
          ],
          [
            -119.501358,
            50.037165
          ],
          [
            -119.501604,
            50.037385
          ],
          [
            -119.501857,
            50.037636
          ],
          [
            -119.502098,
            50.037909
          ],
          [
            -119.502165,
            50.038003
          ],
          [
            -119.502251,
            50.038146
          ],
          [
            -119.502373,
            50.038394
          ],
          [
            -119.502454,
            50.038549
          ],
          [
            -119.502497,
            50.03867
          ],
          [
            -119.502523,
            50.038775
          ],
          [
            -119.502539,
            50.03889
          ],
          [
            -119.502539,
            50.038996
          ],
          [
            -119.502528,
            50.039108
          ],
          [
            -119.502502,
            50.039221
          ],
          [
            -119.502478,
            50.039295
          ],
          [
            -119.502434,
            50.039381
          ],
          [
            -119.502379,
            50.039476
          ],
          [
            -119.502307,
            50.039589
          ],
          [
            -119.502234,
            50.039707
          ],
          [
            -119.502174,
            50.039846
          ],
          [
            -119.502139,
            50.039987
          ],
          [
            -119.502115,
            50.040185
          ],
          [
            -119.502113,
            50.040268
          ],
          [
            -119.502122,
            50.04036
          ],
          [
            -119.502152,
            50.040554
          ],
          [
            -119.502158,
            50.040672
          ],
          [
            -119.502152,
            50.040786
          ],
          [
            -119.502131,
            50.04089
          ],
          [
            -119.50211,
            50.040952
          ],
          [
            -119.502079,
            50.041015
          ],
          [
            -119.502044,
            50.041072
          ],
          [
            -119.501994,
            50.041131
          ],
          [
            -119.501945,
            50.041182
          ],
          [
            -119.501693,
            50.04139
          ],
          [
            -119.501546,
            50.041511
          ],
          [
            -119.501412,
            50.041648
          ],
          [
            -119.501315,
            50.041777
          ],
          [
            -119.501245,
            50.041901
          ],
          [
            -119.501193,
            50.04201
          ],
          [
            -119.501142,
            50.042145
          ],
          [
            -119.501117,
            50.04226
          ],
          [
            -119.501102,
            50.042375
          ],
          [
            -119.501106,
            50.042489
          ],
          [
            -119.501153,
            50.042778
          ],
          [
            -119.501175,
            50.042953
          ],
          [
            -119.501182,
            50.043072
          ],
          [
            -119.50117,
            50.043211
          ],
          [
            -119.501131,
            50.043415
          ],
          [
            -119.501091,
            50.043571
          ],
          [
            -119.501037,
            50.04372
          ],
          [
            -119.500969,
            50.043905
          ],
          [
            -119.500927,
            50.044048
          ],
          [
            -119.500892,
            50.044207
          ],
          [
            -119.500838,
            50.044448
          ],
          [
            -119.500769,
            50.044698
          ],
          [
            -119.500699,
            50.044903
          ],
          [
            -119.500618,
            50.045123
          ],
          [
            -119.500526,
            50.045387
          ],
          [
            -119.50047,
            50.045554
          ],
          [
            -119.500442,
            50.045643
          ],
          [
            -119.500422,
            50.045716
          ],
          [
            -119.500414,
            50.045783
          ],
          [
            -119.500406,
            50.045915
          ],
          [
            -119.500414,
            50.046151
          ],
          [
            -119.500413,
            50.046382
          ],
          [
            -119.500402,
            50.046534
          ],
          [
            -119.500382,
            50.046698
          ],
          [
            -119.500351,
            50.046833
          ],
          [
            -119.500325,
            50.04691
          ],
          [
            -119.500274,
            50.046997
          ],
          [
            -119.500147,
            50.047174
          ],
          [
            -119.5,
            50.047382
          ],
          [
            -119.499954,
            50.047484
          ],
          [
            -119.499923,
            50.047574
          ],
          [
            -119.499908,
            50.047658
          ],
          [
            -119.49991,
            50.047748
          ],
          [
            -119.499955,
            50.047926
          ],
          [
            -119.5,
            50.048078
          ],
          [
            -119.500085,
            50.048367
          ],
          [
            -119.500098,
            50.048484
          ],
          [
            -119.500097,
            50.048614
          ],
          [
            -119.500039,
            50.048895
          ],
          [
            -119.49998,
            50.04917
          ],
          [
            -119.499943,
            50.049307
          ],
          [
            -119.499896,
            50.049437
          ],
          [
            -119.499831,
            50.049623
          ],
          [
            -119.499699,
            50.049933
          ],
          [
            -119.499598,
            50.050206
          ],
          [
            -119.49956,
            50.050349
          ],
          [
            -119.49953,
            50.05051
          ],
          [
            -119.499506,
            50.050675
          ],
          [
            -119.499487,
            50.050846
          ],
          [
            -119.499454,
            50.051176
          ],
          [
            -119.499441,
            50.051497
          ],
          [
            -119.499444,
            50.052066
          ],
          [
            -119.499437,
            50.052325
          ],
          [
            -119.499436,
            50.052421
          ],
          [
            -119.499416,
            50.05257
          ],
          [
            -119.499384,
            50.052705
          ],
          [
            -119.499344,
            50.052831
          ],
          [
            -119.499234,
            50.05311
          ],
          [
            -119.499162,
            50.053258
          ],
          [
            -119.499103,
            50.053409
          ],
          [
            -119.499068,
            50.053537
          ],
          [
            -119.49904,
            50.053696
          ],
          [
            -119.499039,
            50.05384
          ],
          [
            -119.49905,
            50.053992
          ],
          [
            -119.499068,
            50.054135
          ],
          [
            -119.499101,
            50.054286
          ],
          [
            -119.499157,
            50.054432
          ],
          [
            -119.499205,
            50.054597
          ],
          [
            -119.499239,
            50.054768
          ],
          [
            -119.499238,
            50.054777
          ],
          [
            -119.499223,
            50.055228
          ],
          [
            -119.499209,
            50.055443
          ],
          [
            -119.499177,
            50.055658
          ],
          [
            -119.499112,
            50.055881
          ],
          [
            -119.498899,
            50.056461
          ],
          [
            -119.498834,
            50.056737
          ],
          [
            -119.498803,
            50.057003
          ],
          [
            -119.498759,
            50.057256
          ],
          [
            -119.498698,
            50.057521
          ],
          [
            -119.4986,
            50.057727
          ],
          [
            -119.498378,
            50.058135
          ],
          [
            -119.498251,
            50.058334
          ],
          [
            -119.498159,
            50.058469
          ],
          [
            -119.498107,
            50.058564
          ],
          [
            -119.498068,
            50.058687
          ],
          [
            -119.498045,
            50.058823
          ],
          [
            -119.498047,
            50.058976
          ],
          [
            -119.498071,
            50.05914
          ],
          [
            -119.498104,
            50.059367
          ],
          [
            -119.498114,
            50.059526
          ],
          [
            -119.498051,
            50.060297
          ],
          [
            -119.498044,
            50.061262
          ],
          [
            -119.498005,
            50.0625
          ],
          [
            -119.497997,
            50.062754
          ],
          [
            -119.497991,
            50.062948
          ],
          [
            -119.49807,
            50.063555
          ],
          [
            -119.498273,
            50.064162
          ],
          [
            -119.49842,
            50.064438
          ],
          [
            -119.498632,
            50.064842
          ],
          [
            -119.499217,
            50.065666
          ],
          [
            -119.5,
            50.066766
          ],
          [
            -119.501633,
            50.069063
          ],
          [
            -119.501988,
            50.06968
          ],
          [
            -119.502211,
            50.070268
          ],
          [
            -119.502275,
            50.070658
          ],
          [
            -119.502337,
            50.071034
          ],
          [
            -119.502132,
            50.07346
          ],
          [
            -119.501955,
            50.075551
          ],
          [
            -119.501724,
            50.077609
          ],
          [
            -119.501655,
            50.078224
          ],
          [
            -119.501477,
            50.078844
          ],
          [
            -119.501298,
            50.079277
          ],
          [
            -119.50029,
            50.080929
          ],
          [
            -119.5,
            50.081573
          ],
          [
            -119.499965,
            50.08165
          ],
          [
            -119.499119,
            50.08411
          ],
          [
            -119.499058,
            50.084535
          ],
          [
            -119.499088,
            50.084919
          ],
          [
            -119.499167,
            50.085244
          ],
          [
            -119.499318,
            50.085593
          ],
          [
            -119.499659,
            50.086076
          ],
          [
            -119.5,
            50.086422
          ],
          [
            -119.5,
            50.086426
          ],
          [
            -119.5007,
            50.086991
          ],
          [
            -119.501355,
            50.087636
          ],
          [
            -119.501661,
            50.088029
          ],
          [
            -119.501948,
            50.088397
          ],
          [
            -119.502131,
            50.088699
          ]
        ],
        "type": "LineString"
      },
      "properties": {
        "id": "closure_001",
        "road_name": "Westside Road",
        "status": "CLOSED",
        "severity": "MAJOR",
        "matched": true,
        "confidence": 1.0,
        "api": "directions"
      }
    },
    {
      "type": "Feature",
      "geometry": {
        "coordinates": [
          [
            -119.617257,
            49.851962
          ],
          [
            -119.617745,
            49.851075
          ],
          [
            -119.618544,
            49.851123
          ],
          [
            -119.618742,
            49.851138
          ],
          [
            -119.618403,
            49.851649
          ],
          [
            -119.618383,
            49.851679
          ],
          [
            -119.617695,
            49.852764
          ],
          [
            -119.617591,
            49.853069
          ],
          [
            -119.617883,
            49.854924
          ],
          [
            -119.617888,
            49.854951
          ],
          [
            -119.617902,
            49.855011
          ],
          [
            -119.617913,
            49.855039
          ],
          [
            -119.617937,
            49.855098
          ],
          [
            -119.617977,
            49.855203
          ],
          [
            -119.618003,
            49.855415
          ],
          [
            -119.618007,
            49.855451
          ],
          [
            -119.618013,
            49.855516
          ],
          [
            -119.617948,
            49.855912
          ],
          [
            -119.617825,
            49.856096
          ],
          [
            -119.617448,
            49.856659
          ],
          [
            -119.617403,
            49.856795
          ],
          [
            -119.617331,
            49.857353
          ],
          [
            -119.616949,
            49.858105
          ],
          [
            -119.616929,
            49.858144
          ],
          [
            -119.616897,
            49.85821
          ],
          [
            -119.616823,
            49.858291
          ],
          [
            -119.616721,
            49.858405
          ],
          [
            -119.615664,
            49.858959
          ],
          [
            -119.615261,
            49.859171
          ],
          [
            -119.61515,
            49.859333
          ],
          [
            -119.615113,
            49.859425
          ],
          [
            -119.614767,
            49.860268
          ],
          [
            -119.614625,
            49.860462
          ],
          [
            -119.614352,
            49.860716
          ],
          [
            -119.613995,
            49.860975
          ],
          [
            -119.613343,
            49.861621
          ],
          [
            -119.61332,
            49.861644
          ],
          [
            -119.613145,
            49.861968
          ],
          [
            -119.613053,
            49.862223
          ],
          [
            -119.613028,
            49.862293
          ],
          [
            -119.612878,
            49.862715
          ],
          [
            -119.612729,
            49.86291
          ],
          [
            -119.61263,
            49.862975
          ],
          [
            -119.612458,
            49.863092
          ],
          [
            -119.612327,
            49.863125
          ],
          [
            -119.612106,
            49.863182
          ],
          [
            -119.611833,
            49.863214
          ],
          [
            -119.611561,
            49.863227
          ],
          [
            -119.611355,
            49.863227
          ],
          [
            -119.610418,
            49.863253
          ],
          [
            -119.610254,
            49.863269
          ],
          [
            -119.610095,
            49.863297
          ],
          [
            -119.609899,
            49.863363
          ],
          [
            -119.60965,
            49.86347
          ],
          [
            -119.609485,
            49.863554
          ],
          [
            -119.609368,
            49.863614
          ],
          [
            -119.609054,
            49.863798
          ],
          [
            -119.608817,
            49.863957
          ],
          [
            -119.607494,
            49.865044
          ],
          [
            -119.607291,
            49.86521
          ],
          [
            -119.60712,
            49.865339
          ],
          [
            -119.606935,
            49.865445
          ],
          [
            -119.606742,
            49.865536
          ],
          [
            -119.606553,
            49.865615
          ],
          [
            -119.606324,
            49.865686
          ],
          [
            -119.605461,
            49.865878
          ],
          [
            -119.604678,
            49.866064
          ],
          [
            -119.604056,
            49.866211
          ],
          [
            -119.604002,
            49.866223
          ],
          [
            -119.603253,
            49.866363
          ],
          [
            -119.602664,
            49.866438
          ],
          [
            -119.602143,
            49.866493
          ],
          [
            -119.601866,
            49.866522
          ],
          [
            -119.601466,
            49.8666
          ],
          [
            -119.601267,
            49.866649
          ],
          [
            -119.601205,
            49.866664
          ],
          [
            -119.600781,
            49.866747
          ],
          [
            -119.600238,
            49.866863
          ],
          [
            -119.599716,
            49.866997
          ],
          [
            -119.598697,
            49.867334
          ],
          [
            -119.598425,
            49.86741
          ],
          [
            -119.597356,
            49.867692
          ],
          [
            -119.597168,
            49.86774
          ],
          [
            -119.596521,
            49.867908
          ],
          [
            -119.596385,
            49.867986
          ],
          [
            -119.59556,
            49.868466
          ],
          [
            -119.595293,
            49.868563
          ],
          [
            -119.595041,
            49.868654
          ],
          [
            -119.594236,
            49.868765
          ],
          [
            -119.593483,
            49.868745
          ],
          [
            -119.592626,
            49.868531
          ],
          [
            -119.591691,
            49.868206
          ],
          [
            -119.591438,
            49.868057
          ],
          [
            -119.590457,
            49.866859
          ],
          [
            -119.590424,
            49.866819
          ],
          [
            -119.590056,
            49.866369
          ],
          [
            -119.589919,
            49.866103
          ],
          [
            -119.589796,
            49.865629
          ],
          [
            -119.589575,
            49.865285
          ],
          [
            -119.58938,
            49.865037
          ],
          [
            -119.589111,
            49.864845
          ],
          [
            -119.588747,
            49.864715
          ],
          [
            -119.588552,
            49.864692
          ],
          [
            -119.588257,
            49.864654
          ],
          [
            -119.588154,
            49.864632
          ],
          [
            -119.588052,
            49.864611
          ],
          [
            -119.587992,
            49.864575
          ],
          [
            -119.587889,
            49.864449
          ],
          [
            -119.587788,
            49.864179
          ],
          [
            -119.587738,
            49.863751
          ],
          [
            -119.587711,
            49.863401
          ],
          [
            -119.587672,
            49.863197
          ],
          [
            -119.587602,
            49.86283
          ],
          [
            -119.587555,
            49.862581
          ],
          [
            -119.587513,
            49.86245
          ],
          [
            -119.587374,
            49.862052
          ],
          [
            -119.587354,
            49.861994
          ],
          [
            -119.587248,
            49.86169
          ],
          [
            -119.587198,
            49.861546
          ],
          [
            -119.586932,
            49.861638
          ],
          [
            -119.586114,
            49.861919
          ],
          [
            -119.584677,
            49.862258
          ],
          [
            -119.58385,
            49.862431
          ],
          [
            -119.583056,
            49.862535
          ],
          [
            -119.581604,
            49.862643
          ],
          [
            -119.581565,
            49.862646
          ],
          [
            -119.57634,
            49.862607
          ],
          [
            -119.575911,
            49.862604
          ],
          [
            -119.575553,
            49.862601
          ],
          [
            -119.570085,
            49.862563
          ],
          [
            -119.569356,
            49.862583
          ],
          [
            -119.568733,
            49.862653
          ],
          [
            -119.568025,
            49.862715
          ],
          [
            -119.567274,
            49.862846
          ],
          [
            -119.566588,
            49.862978
          ],
          [
            -119.565461,
            49.863247
          ],
          [
            -119.564898,
            49.863427
          ],
          [
            -119.564678,
            49.863504
          ],
          [
            -119.564542,
            49.863552
          ],
          [
            -119.564241,
            49.863667
          ],
          [
            -119.563778,
            49.863869
          ],
          [
            -119.563283,
            49.864084
          ],
          [
            -119.562264,
            49.864637
          ],
          [
            -119.558198,
            49.867321
          ],
          [
            -119.554936,
            49.86945
          ],
          [
            -119.552522,
            49.87102
          ],
          [
            -119.551406,
            49.871546
          ],
          [
            -119.550505,
            49.871885
          ],
          [
            -119.546276,
            49.873138
          ],
          [
            -119.545692,
            49.873311
          ],
          [
            -119.544779,
            49.873582
          ],
          [
            -119.544386,
            49.873698
          ],
          [
            -119.544263,
            49.873735
          ],
          [
            -119.544088,
            49.873791
          ],
          [
            -119.543681,
            49.873899
          ],
          [
            -119.542707,
            49.874188
          ],
          [
            -119.541806,
            49.874588
          ],
          [
            -119.541145,
            49.874964
          ],
          [
            -119.54048,
            49.875489
          ],
          [
            -119.539997,
            49.876008
          ],
          [
            -119.539675,
            49.876485
          ],
          [
            -119.539303,
            49.877079
          ],
          [
            -119.538346,
            49.878604
          ],
          [
            -119.538246,
            49.878756
          ],
          [
            -119.537621,
            49.879563
          ],
          [
            -119.53734,
            49.879944
          ],
          [
            -119.537206,
            49.880122
          ],
          [
            -119.537098,
            49.880253
          ],
          [
            -119.536933,
            49.880455
          ],
          [
            -119.536792,
            49.880596
          ],
          [
            -119.536567,
            49.880838
          ],
          [
            -119.536296,
            49.881111
          ],
          [
            -119.535961,
            49.88142
          ],
          [
            -119.535661,
            49.881723
          ],
          [
            -119.535153,
            49.882149
          ],
          [
            -119.534443,
            49.882708
          ],
          [
            -119.533312,
            49.883507
          ],
          [
            -119.533216,
            49.883575
          ],
          [
            -119.531873,
            49.884454
          ],
          [
            -119.531629,
            49.88463
          ],
          [
            -119.531343,
            49.88481
          ],
          [
            -119.530933,
            49.88499
          ],
          [
            -119.530545,
            49.885121
          ],
          [
            -119.530148,
            49.885206
          ],
          [
            -119.529795,
            49.885255
          ],
          [
            -119.529138,
            49.88528
          ],
          [
            -119.528679,
            49.885235
          ],
          [
            -119.528404,
            49.88518
          ],
          [
            -119.528093,
            49.885097
          ],
          [
            -119.527642,
            49.884924
          ],
          [
            -119.527408,
            49.884812
          ],
          [
            -119.527228,
            49.884703
          ],
          [
            -119.527063,
            49.884558
          ],
          [
            -119.526789,
            49.884315
          ],
          [
            -119.526754,
            49.884284
          ],
          [
            -119.526684,
            49.884224
          ],
          [
            -119.526609,
            49.884155
          ],
          [
            -119.526474,
            49.884033
          ],
          [
            -119.526319,
            49.883887
          ],
          [
            -119.525921,
            49.883519
          ],
          [
            -119.525558,
            49.883181
          ],
          [
            -119.524768,
            49.882429
          ],
          [
            -119.52462,
            49.882273
          ],
          [
            -119.524467,
            49.882091
          ],
          [
            -119.524373,
            49.881974
          ],
          [
            -119.524295,
            49.881829
          ],
          [
            -119.524219,
            49.881661
          ],
          [
            -119.524165,
            49.881444
          ],
          [
            -119.524119,
            49.881064
          ],
          [
            -119.524142,
            49.88061
          ],
          [
            -119.524162,
            49.880086
          ],
          [
            -119.524166,
            49.87999
          ],
          [
            -119.524169,
            49.879927
          ],
          [
            -119.524175,
            49.879793
          ],
          [
            -119.524166,
            49.879584
          ],
          [
            -119.524118,
            49.879394
          ],
          [
            -119.524072,
            49.879246
          ],
          [
            -119.523985,
            49.879079
          ],
          [
            -119.523896,
            49.878932
          ],
          [
            -119.523777,
            49.878783
          ],
          [
            -119.523597,
            49.878598
          ],
          [
            -119.523497,
            49.878507
          ],
          [
            -119.523372,
            49.878413
          ],
          [
            -119.523216,
            49.878313
          ],
          [
            -119.523036,
            49.878216
          ],
          [
            -119.522825,
            49.878116
          ],
          [
            -119.522586,
            49.878028
          ],
          [
            -119.522368,
            49.877956
          ],
          [
            -119.522245,
            49.877923
          ],
          [
            -119.522089,
            49.87788
          ],
          [
            -119.52187,
            49.877844
          ],
          [
            -119.521553,
            49.877803
          ],
          [
            -119.521312,
            49.877785
          ],
          [
            -119.520886,
            49.877779
          ],
          [
            -119.520665,
            49.877792
          ],
          [
            -119.520515,
            49.877815
          ],
          [
            -119.51869,
            49.878124
          ],
          [
            -119.504434,
            49.880726
          ],
          [
            -119.503036,
            49.880998
          ],
          [
            -119.502698,
            49.881072
          ],
          [
            -119.502518,
            49.881119
          ],
          [
            -119.502344,
            49.881177
          ],
          [
            -119.502182,
            49.881239
          ],
          [
            -119.502049,
            49.881306
          ],
          [
            -119.501929,
            49.881377
          ],
          [
            -119.501771,
            49.881481
          ],
          [
            -119.501662,
            49.88157
          ],
          [
            -119.501562,
            49.88167
          ],
          [
            -119.501478,
            49.881786
          ],
          [
            -119.50139,
            49.881919
          ],
          [
            -119.501322,
            49.882049
          ],
          [
            -119.501193,
            49.882344
          ],
          [
            -119.501119,
            49.882541
          ],
          [
            -119.501061,
            49.88267
          ],
          [
            -119.500992,
            49.882791
          ],
          [
            -119.500942,
            49.882866
          ],
          [
            -119.500868,
            49.882955
          ],
          [
            -119.500791,
            49.883036
          ],
          [
            -119.500709,
            49.883117
          ],
          [
            -119.500617,
            49.883182
          ],
          [
            -119.500502,
            49.883254
          ],
          [
            -119.500312,
            49.883348
          ],
          [
            -119.500102,
            49.883424
          ],
          [
            -119.499994,
            49.883455
          ],
          [
            -119.499918,
            49.883475
          ],
          [
            -119.499788,
            49.883506
          ],
          [
            -119.499607,
            49.883532
          ],
          [
            -119.499491,
            49.883589
          ],
          [
            -119.49944,
            49.883638
          ],
          [
            -119.499419,
            49.883671
          ],
          [
            -119.499405,
            49.883695
          ],
          [
            -119.499373,
            49.883785
          ],
          [
            -119.499368,
            49.883971
          ],
          [
            -119.499405,
            49.884137
          ],
          [
            -119.499406,
            49.884152
          ],
          [
            -119.499418,
            49.884497
          ],
          [
            -119.499551,
            49.884464
          ],
          [
            -119.499616,
            49.884453
          ],
          [
            -119.500741,
            49.884272
          ],
          [
            -119.50105,
            49.884238
          ],
          [
            -119.501358,
            49.884213
          ],
          [
            -119.501681,
            49.884192
          ],
          [
            -119.501855,
            49.884184
          ],
          [
            -119.50192,
            49.884183
          ],
          [
            -119.501995,
            49.884181
          ],
          [
            -119.502032,
            49.884182
          ],
          [
            -119.502069,
            49.884185
          ],
          [
            -119.502198,
            49.8842
          ],
          [
            -119.502211,
            49.884237
          ],
          [
            -119.502237,
            49.884313
          ],
          [
            -119.50228,
            49.884401
          ],
          [
            -119.50231,
            49.884504
          ],
          [
            -119.502321,
            49.884688
          ]
        ],
        "type": "LineString"
      },
      "properties": {
        "id": "closure_002",
        "road_name": "Highway 97 (travel advisory)",
        "status": "ADVISORY",
        "severity": "MODERATE",
        "matched": true,
        "confidence": 0.507,
        "api": "matching"
      }
    },
    {
      "type": "Feature",
      "geometry": {
        "coordinates": [
          [
            -119.580278,
            49.87
          ],
          [
            -119.580271,
            49.869567
          ],
          [
            -119.580293,
            49.868986
          ],
          [
            -119.580325,
            49.866365
          ],
          [
            -119.57892,
            49.866362
          ],
          [
            -119.578208,
            49.866356
          ],
          [
            -119.577448,
            49.86635
          ],
          [
            -119.575977,
            49.866339
          ],
          [
            -119.575908,
            49.866338
          ],
          [
            -119.574584,
            49.866327
          ],
          [
            -119.574529,
            49.866327
          ],
          [
            -119.574145,
            49.866323
          ],
          [
            -119.573302,
            49.866321
          ],
          [
            -119.572486,
            49.866318
          ],
          [
            -119.571914,
            49.866317
          ],
          [
            -119.571163,
            49.866337
          ],
          [
            -119.571,
            49.866343
          ],
          [
            -119.570755,
            49.866351
          ],
          [
            -119.57053,
            49.866386
          ],
          [
            -119.570304,
            49.8664
          ],
          [
            -119.569982,
            49.866434
          ],
          [
            -119.56965,
            49.866441
          ],
          [
            -119.569403,
            49.86642
          ],
          [
            -119.569172,
            49.866401
          ],
          [
            -119.56907,
            49.866393
          ],
          [
            -119.568738,
            49.866323
          ],
          [
            -119.568405,
            49.86624
          ],
          [
            -119.568073,
            49.866171
          ],
          [
            -119.567978,
            49.866145
          ],
          [
            -119.56791,
            49.866269
          ],
          [
            -119.567877,
            49.866364
          ],
          [
            -119.56788,
            49.866496
          ],
          [
            -119.567943,
            49.866632
          ],
          [
            -119.56802,
            49.866745
          ],
          [
            -119.568109,
            49.866847
          ],
          [
            -119.56822,
            49.86696
          ],
          [
            -119.569066,
            49.867786
          ],
          [
            -119.569184,
            49.867877
          ],
          [
            -119.569284,
            49.867937
          ],
          [
            -119.569545,
            49.868073
          ],
          [
            -119.570724,
            49.868648
          ],
          [
            -119.570877,
            49.868733
          ],
          [
            -119.571062,
            49.868857
          ],
          [
            -119.571135,
            49.868913
          ],
          [
            -119.571406,
            49.869117
          ],
          [
            -119.571549,
            49.869241
          ],
          [
            -119.571612,
            49.86931
          ],
          [
            -119.571655,
            49.869391
          ],
          [
            -119.571667,
            49.869449
          ],
          [
            -119.571658,
            49.869497
          ],
          [
            -119.571639,
            49.869534
          ],
          [
            -119.571586,
            49.869606
          ],
          [
            -119.571453,
            49.869737
          ],
          [
            -119.57139,
            49.86981
          ],
          [
            -119.571355,
            49.869875
          ],
          [
            -119.571346,
            49.869924
          ],
          [
            -119.571351,
            49.869975
          ],
          [
            -119.571373,
            49.870019
          ],
          [
            -119.571433,
            49.870083
          ],
          [
            -119.571678,
            49.870276
          ],
          [
            -119.571796,
            49.870401
          ],
          [
            -119.571853,
            49.87049
          ],
          [
            -119.571863,
            49.870529
          ],
          [
            -119.571881,
            49.870595
          ],
          [
            -119.571881,
            49.870635
          ],
          [
            -119.571866,
            49.870783
          ],
          [
            -119.571871,
            49.87085
          ],
          [
            -119.571892,
            49.870922
          ],
          [
            -119.571974,
            49.871116
          ],
          [
            -119.571988,
            49.871184
          ],
          [
            -119.57199,
            49.871269
          ],
          [
            -119.571951,
            49.871682
          ],
          [
            -119.571944,
            49.8721
          ],
          [
            -119.571965,
            49.87284
          ],
          [
            -119.571958,
            49.873088
          ],
          [
            -119.571935,
            49.873269
          ],
          [
            -119.57191,
            49.873383
          ],
          [
            -119.571878,
            49.873481
          ],
          [
            -119.571837,
            49.87357
          ],
          [
            -119.571805,
            49.873633
          ],
          [
            -119.571709,
            49.873794
          ],
          [
            -119.571441,
            49.87417
          ],
          [
            -119.57083,
            49.87499
          ],
          [
            -119.570743,
            49.875124
          ],
          [
            -119.570703,
            49.875207
          ],
          [
            -119.570686,
            49.875272
          ],
          [
            -119.570679,
            49.87532
          ],
          [
            -119.57068,
            49.875404
          ],
          [
            -119.57068,
            49.875423
          ],
          [
            -119.570744,
            49.875617
          ],
          [
            -119.570765,
            49.875645
          ],
          [
            -119.570851,
            49.875762
          ],
          [
            -119.571001,
            49.875856
          ],
          [
            -119.571163,
            49.875956
          ],
          [
            -119.571592,
            49.876163
          ],
          [
            -119.571709,
            49.8763
          ],
          [
            -119.571763,
            49.876364
          ],
          [
            -119.571881,
            49.876516
          ],
          [
            -119.572032,
            49.876703
          ],
          [
            -119.572035,
            49.876725
          ],
          [
            -119.572075,
            49.876924
          ],
          [
            -119.572085,
            49.877152
          ],
          [
            -119.572075,
            49.877276
          ],
          [
            -119.572772,
            49.87729
          ],
          [
            -119.57319,
            49.877352
          ],
          [
            -119.573512,
            49.877456
          ],
          [
            -119.573638,
            49.87753
          ],
          [
            -119.573759,
            49.877601
          ],
          [
            -119.573469,
            49.877802
          ],
          [
            -119.573212,
            49.878009
          ],
          [
            -119.572986,
            49.878189
          ],
          [
            -119.572804,
            49.87832
          ],
          [
            -119.572622,
            49.878396
          ],
          [
            -119.572492,
            49.878436
          ],
          [
            -119.572396,
            49.878466
          ],
          [
            -119.572053,
            49.878549
          ],
          [
            -119.571849,
            49.878608
          ],
          [
            -119.571742,
            49.878638
          ],
          [
            -119.571356,
            49.878756
          ],
          [
            -119.570487,
            49.879067
          ],
          [
            -119.570154,
            49.879198
          ],
          [
            -119.569789,
            49.879309
          ],
          [
            -119.569607,
            49.879339
          ],
          [
            -119.569532,
            49.879351
          ],
          [
            -119.569188,
            49.879399
          ],
          [
            -119.56891,
            49.879399
          ],
          [
            -119.568459,
            49.879364
          ],
          [
            -119.568201,
            49.879295
          ],
          [
            -119.568152,
            49.879278
          ],
          [
            -119.56812,
            49.879323
          ],
          [
            -119.568098,
            49.879413
          ],
          [
            -119.568098,
            49.879465
          ],
          [
            -119.568179,
            49.879575
          ],
          [
            -119.568254,
            49.879624
          ],
          [
            -119.568299,
            49.879635
          ],
          [
            -119.568485,
            49.879682
          ],
          [
            -119.568645,
            49.879707
          ],
          [
            -119.568833,
            49.879724
          ],
          [
            -119.568935,
            49.879752
          ],
          [
            -119.569016,
            49.879824
          ],
          [
            -119.569048,
            49.879861
          ],
          [
            -119.569069,
            49.879886
          ],
          [
            -119.569085,
            49.879956
          ],
          [
            -119.569059,
            49.880042
          ],
          [
            -119.569022,
            49.880104
          ],
          [
            -119.569001,
            49.88014
          ],
          [
            -119.56893,
            49.880201
          ],
          [
            -119.568824,
            49.880255
          ],
          [
            -119.568646,
            49.880281
          ],
          [
            -119.568517,
            49.880381
          ],
          [
            -119.568406,
            49.880434
          ],
          [
            -119.5679,
            49.880678
          ],
          [
            -119.567845,
            49.880711
          ]
        ],
        "type": "LineString"
      },
      "properties": {
        "id": "closure_003",
        "road_name": "Rose Valley access roads",
        "status": "CLOSED",
        "severity": "MAJOR",
        "matched": true,
        "confidence": 0.193,
        "api": "matching"
      }
    },
    {
      "type": "Feature",
      "geometry": {
        "coordinates": [
          [
            -119.546671,
            49.898865
          ],
          [
            -119.546594,
            49.898995
          ],
          [
            -119.54654,
            49.899223
          ],
          [
            -119.546505,
            49.899278
          ],
          [
            -119.546422,
            49.899417
          ],
          [
            -119.546229,
            49.899659
          ],
          [
            -119.545799,
            49.89999
          ],
          [
            -119.545617,
            49.900198
          ],
          [
            -119.54522,
            49.900598
          ],
          [
            -119.545083,
            49.900743
          ],
          [
            -119.544574,
            49.901282
          ],
          [
            -119.544501,
            49.901359
          ],
          [
            -119.544383,
            49.901545
          ],
          [
            -119.544298,
            49.901773
          ],
          [
            -119.544233,
            49.902043
          ],
          [
            -119.544255,
            49.902388
          ],
          [
            -119.544308,
            49.903079
          ],
          [
            -119.544308,
            49.903321
          ],
          [
            -119.544276,
            49.903542
          ],
          [
            -119.544126,
            49.903777
          ],
          [
            -119.54403,
            49.903892
          ],
          [
            -119.543547,
            49.904475
          ],
          [
            -119.543278,
            49.904917
          ],
          [
            -119.543214,
            49.905194
          ],
          [
            -119.543203,
            49.905546
          ],
          [
            -119.54315,
            49.905912
          ],
          [
            -119.543124,
            49.90599
          ],
          [
            -119.542967,
            49.906486
          ],
          [
            -119.542864,
            49.906862
          ],
          [
            -119.542838,
            49.906956
          ],
          [
            -119.542753,
            49.907211
          ],
          [
            -119.54267,
            49.907288
          ],
          [
            -119.542538,
            49.907412
          ],
          [
            -119.542291,
            49.907591
          ],
          [
            -119.541959,
            49.907882
          ],
          [
            -119.541787,
            49.908047
          ],
          [
            -119.54169,
            49.908193
          ],
          [
            -119.541605,
            49.908421
          ],
          [
            -119.541551,
            49.909229
          ],
          [
            -119.541519,
            49.909954
          ],
          [
            -119.541465,
            49.910496
          ],
          [
            -119.541404,
            49.911037
          ],
          [
            -119.541382,
            49.911269
          ],
          [
            -119.54139,
            49.91153
          ],
          [
            -119.541401,
            49.91173
          ],
          [
            -119.541369,
            49.911951
          ],
          [
            -119.541293,
            49.912207
          ],
          [
            -119.541186,
            49.912635
          ],
          [
            -119.540993,
            49.913119
          ],
          [
            -119.540768,
            49.913533
          ],
          [
            -119.540703,
            49.913651
          ],
          [
            -119.54066,
            49.913893
          ],
          [
            -119.5405,
            49.914224
          ],
          [
            -119.54044,
            49.914272
          ],
          [
            -119.540253,
            49.914425
          ],
          [
            -119.539856,
            49.914778
          ]
        ],
        "type": "LineString"
      },
      "properties": {
        "id": "closure_004",
        "road_name": "Bear Creek Road",
        "status": "CLOSED",
        "severity": "MAJOR",
        "matched": true,
        "confidence": 1.0,
        "api": "directions"
      }
    }
  ]
}