{"type": "FeatureCollection", "features": [{"type": "Feature", "geometry": {"type": "Polygon", "coordinates": [[[-119.71742725566573, 49.91625046076986], [-119.7088462833511, 49.93207843021145], [-119.70110776329906, 49.937470927059216], [-119.67283783874493, 49.94525736771581], [-119.67294502716184, 49.95163680031584], [-119.67080972680489, 49.956367898970285], [-119.6642658993897, 49.96317933539436], [-119.65663676721235, 49.96734585011608], [-119.65308740879298, 49.97308939434051], [-119.64702299573459, 49.97772825809505], [-119.64134535268101, 49.99254463483123], [-119.63172246227344, 50.003407631323036], [-119.62092533927212, 50.00809785016658], [-119.6059784993492, 50.01015942171882], [-119.58191021005591, 50.008019615352794], [-119.57598513693367, 50.01183975808792], [-119.56718925497306, 50.02629051459893], [-119.55319243514018, 50.040510318584154], [-119.5499545626667, 50.04709437389889], [-119.53969825760569, 50.05411792119501], [-119.52766774066606, 50.057051562255296], [-119.51541684601214, 50.062516547893345], [-119.50455767183796, 50.06347233432566], [-119.49649484159278, 50.06236704978492], [-119.48263243159585, 50.05553881739554], [-119.47661217011203, 50.04584669123903], [-119.46571192720562, 50.03521166680734], [-119.46056831425787, 50.01679482571691], [-119.46490176385622, 49.99655007482995], [-119.4608095907453, 49.986628492337], [-119.46194354105454, 49.981615743589614], [-119.46788374951063, 49.97307134050572], [-119.46553542347777, 49.95140876038486], [-119.47028050413189, 49.93528468082311], [-119.47377654952554, 49.93041407568073], [-119.48276442053371, 49.92374451232789], [-119.49046546662832, 49.91377750609289], [-119.49870863372769, 49.90934812463257], [-119.50828463200146, 49.906862020496696], [-119.51215674726409, 49.8910220597646], [-119.51984574050793, 49.879266782110676], [-119.52747606892032, 49.87396651449255], [-119.54072470436854, 49.87027550374736], [-119.55031976072115, 49.86434978133786], [-119.57277396734213, 49.857056221253785], [-119.59109269261849, 49.85741993800877], [-119.63559476302204, 49.854133161266475], [-119.65022146012954, 49.85542017897781], [-119.6810547144889, 49.86547001915202], [-119.68755892027106, 49.8702476990052], [-119.69106734050429, 49.875696002340916], [-119.70003998444128, 49.88229151253898], [-119.70367754832492, 49.88914463480891], [-119.70341544717009, 49.89604037200053], [-119.71354667466191, 49.905151461240784], [-119.71684816722556, 49.91048456573907], [-119.71742725566573, 49.91625046076986]]]}, "properties": {"label": "+2hr spread", "hours": 2}}]}