{"type": "FeatureCollection", "features": [{"type": "Feature", "geometry": {"type": "Polygon", "coordinates": [[[-119.77009660043713, 49.89912087164311], [-119.74421347007568, 49.865], [-119.7222496642629, 49.865], [-119.72055644251277, 49.865], [-119.68266013711062, 49.865], [-119.6818356057963, 49.865], [-119.67928630158086, 49.865], [-119.58129874049472, 49.865], [-119.58100506854231, 49.865], [-119.57972234784378, 49.865], [-119.57947593072423, 49.865], [-119.57924748466026, 49.865], [-119.5493349132457, 49.865], [-119.505, 49.865], [-119.505, 49.94544791565901], [-119.505, 49.968943915276434], [-119.505, 50.02203635279844], [-119.505, 50.05924353004363], [-119.505, 50.073319234072855], [-119.505, 50.07605556668045], [-119.505, 50.07643185240475], [-119.505, 50.09462666093226], [-119.505, 50.095047552765244], [-119.505, 50.0899577670344], [-119.63847897228867, 50.042359776900916], [-119.76753733742716, 49.912781345695166], [-119.76840474824269, 49.910516863849985], [-119.77027368563463, 49.90047915439898], [-119.77009660043713, 49.89912087164311]]]}, "properties": {"label": "Evacuation Alert Zone"}}]}