{"type": "FeatureCollection", "features": [{"type": "Feature", "geometry": {"type": "Polygon", "coordinates": [[[-119.7719880224177, 49.92429248184516], [-119.7611213268465, 49.94528310849986], [-119.751804508069, 49.955178830211956], [-119.74016566654934, 49.96326351843789], [-119.72140376105972, 49.97142654668894], [-119.71244353163674, 49.98154769007337], [-119.70300834177365, 49.989099414227056], [-119.69872492674054, 49.99370732593443], [-119.69281633146143, 50.006415015622444], [-119.68618410244433, 50.01516465575199], [-119.67286457253853, 50.02770411168252], [-119.66117647193559, 50.03450924404022], [-119.64771329814118, 50.039782231601535], [-119.61440860189991, 50.045694399396055], [-119.59481338386587, 50.068725444873664], [-119.58467376199935, 50.07662590122307], [-119.5709105561691, 50.08394870303778], [-119.54138981478019, 50.09450560776729], [-119.51763497646765, 50.09897041005907], [-119.50111316099382, 50.09936550389518], [-119.47690776738052, 50.096047518346076], [-119.46128655732547, 50.091039787751534], [-119.44791412396964, 50.08440533965786], [-119.43238949646289, 50.07157338755338], [-119.41495881721477, 50.050459475881645], [-119.40868268484175, 50.03588335237685], [-119.40483558670739, 50.01872746406785], [-119.407811793938, 50.000331735829576], [-119.40537040807317, 49.991564994213284], [-119.40543737328835, 49.98141455740051], [-119.41136713538188, 49.96611488718304], [-119.40979348772673, 49.95529152619267], [-119.41078052456587, 49.94425612529182], [-119.41954739117476, 49.92010598820684], [-119.44230354861283, 49.89545744190094], [-119.45708134789842, 49.884571504299714], [-119.46829486482775, 49.86536560136634], [-119.48252183789496, 49.85186270367402], [-119.49521643477496, 49.844668285559756], [-119.52116494927789, 49.833724485343836], [-119.54968340640399, 49.82418619540663], [-119.57540841014968, 49.82044847199458], [-119.64826908500548, 49.81840002921946], [-119.67132746993656, 49.82215057211686], [-119.70304005927686, 49.831834462844135], [-119.71705090351942, 49.83805706878653], [-119.729755688184, 49.846606652904796], [-119.74802854170638, 49.8640915196865], [-119.75440411862222, 49.87281020625454], [-119.75869385498727, 49.88398709067644], [-119.76908719172748, 49.8977164336679], [-119.77250764079754, 49.90742999859577], [-119.7731047835349, 49.91738413971498], [-119.7719880224177, 49.92429248184516]]]}, "properties": {"label": "+6hr spread", "hours": 6}}]}