{"type": "FeatureCollection", "features": [{"type": "Feature", "geometry": {"type": "Polygon", "coordinates": [[[-119.74092690776186, 49.92926866281866], [-119.73615593700922, 49.93730333064264], [-119.72610984938775, 49.94702094628671], [-119.71383955380294, 49.95361531387099], [-119.69941518081099, 49.95777074957804], [-119.69352513364646, 49.96714575952397], [-119.67328927183617, 49.98583388797771], [-119.66707722864614, 49.99948274549356], [-119.65862225207856, 50.01016178395174], [-119.65228833769649, 50.01555779135557], [-119.64013843025711, 50.02198675259553], [-119.63069076187652, 50.02494108948271], [-119.60996439589599, 50.02795540130554], [-119.59631376384156, 50.028096430384096], [-119.56850176864731, 50.06137840300768], [-119.55470594297604, 50.06928247188055], [-119.53456537145529, 50.07653576652735], [-119.5192675977404, 50.08050160752441], [-119.50283593798848, 50.081418947405595], [-119.48670464568349, 50.07920766815779], [-119.47603105927483, 50.07576548544919], [-119.45976268116051, 50.065861682400694], [-119.45176015328722, 50.05486427509025], [-119.44322299484206, 50.04691671792148], [-119.43734766022467, 50.036483877695765], [-119.43270262852099, 50.01776448493237], [-119.43628190594704, 49.998900266908926], [-119.43292126259489, 49.986561980653484], [-119.4351947620301, 49.976536931330685], [-119.43957024455122, 49.96964421170495], [-119.43775642828976, 49.94997500818965], [-119.4453663456709, 49.926850229754464], [-119.4688720613806, 49.902425970618346], [-119.48208800597529, 49.89486021214598], [-119.48629198374873, 49.88438339260338], [-119.49339557453317, 49.87311996831619], [-119.49925150811306, 49.86690501469417], [-119.51134133086919, 49.8593186151025], [-119.54046032867387, 49.847356643223556], [-119.55987520572523, 49.840915301759566], [-119.57110445005995, 49.83888842111812], [-119.64010741495375, 49.83609361291775], [-119.6607779957976, 49.83878581843463], [-119.69455051318604, 49.84953586896433], [-119.70785298680535, 49.85768519536243], [-119.72403884119579, 49.87319393216089], [-119.7297916470898, 49.88207466155215], [-119.73181948922898, 49.89071917284938], [-119.7426286581531, 49.90330235344003], [-119.74529986872668, 49.916414901270336], [-119.74092690776186, 49.92926866281866]]]}, "properties": {"label": "+4hr spread", "hours": 4}}]}